district,schooldbn,name,telephone,address,Postcode,Borough,url,Latitude,Longitude
1,01M034,P.S. 034 Franklin D. Roosevelt,212-228-4433,"730 East  12 Street, New York, NY 10009",10009.0,MANHATTAN,https://www.myschools.nyc/en/schools/middle-school/8843,40.726473,-73.975181
1,01M140,P.S. 140 Nathan Straus,212-677-4680,"123 Ridge Street, New York, NY 10002",10002.0,MANHATTAN,https://www.myschools.nyc/en/schools/middle-school/8855,40.71925,-73.983056
1,01M184,P.S. 184m Shuang Wen,212-602-9700,"327 Cherry Street, New York, NY 10002",10002.0,MANHATTAN,https://www.myschools.nyc/en/schools/middle-school/8860,40.711549,-73.986542
1,01M188,P.S. 188 The Island School,212-677-5710,"442 East Houston Street, New York, NY 10002",10002.0,MANHATTAN,https://www.myschools.nyc/en/schools/middle-school/8863,40.719598,-73.977904
1,01M332,University Neighborhood Middle School,212-267-5701,"220 Henry Street, New York, NY 10002",10002.0,MANHATTAN,https://www.myschools.nyc/en/schools/middle-school/8869,40.713684,-73.986336
1,01M378,School for Global Leaders,212-260-5375,"145 Stanton Street, New York, NY 10002",10002.0,MANHATTAN,https://www.myschools.nyc/en/schools/middle-school/8876,40.720581,-73.985645
1,01M450,East Side Community School,212-460-8467,"420 East 12 Street, New York, NY 10009",10009.0,MANHATTAN,https://www.myschools.nyc/en/schools/middle-school/8879,40.729589,-73.982555
1,01M539,"New Explorations into Science, Technology & Math",212-677-5190,"111 Columbia Street, New York, NY 10002",10002.0,MANHATTAN,https://www.myschools.nyc/en/schools/middle-school/8881,40.718895,-73.979308
1,01M839,Tompkins Square Middle School,212-995-1430,"600 East  6 Street, New York, NY 10009",10009.0,MANHATTAN,https://www.myschools.nyc/en/schools/middle-school/8885,40.724435,-73.981521
2,02M104,J.H.S. 104 Simon Baruch,212-674-4545,"330 East  21 Street, New York, NY 10010",10010.0,MANHATTAN,https://www.myschools.nyc/en/schools/middle-school/8939,40.736094,-73.980663
2,02M114,East Side Middle School,212-360-0114,"331 East 91St Street, New York, NY 10128",10128.0,MANHATTAN,https://www.myschools.nyc/en/schools/middle-school/8943,40.780706,-73.948553
2,02M126,Manhattan Academy of Technology/Jacob Riis,212-962-2188,"80 Catherine Street, New York, NY 10038",10038.0,MANHATTAN,https://www.myschools.nyc/en/schools/middle-school/8949,40.710729,-73.996631
2,02M131,Sun Yat Sen Middle School,212-219-1204,"100 Hester Street, New York, NY 10002",10002.0,MANHATTAN,https://www.myschools.nyc/en/schools/middle-school/8955,40.716553,-73.993092
2,02M167,J.H.S. 167 Robert F. Wagner,212-535-8610,"220 East  76 Street, New York, NY 10021",10021.0,MANHATTAN,https://www.myschools.nyc/en/schools/middle-school/8964,40.77205,-73.958066
2,02M177,Yorkville East Middle School,917-432-5413,"1458 York Avenue, New York, NY 10075",10075.0,MANHATTAN,https://www.myschools.nyc/en/schools/middle-school/8965,40.770419,-73.951135
2,02M217,P.S./I.S. 217 Roosevelt Island,212-980-0294,"645 Main Street, New York, NY 10044",10044.0,MANHATTAN,https://www.myschools.nyc/en/schools/middle-school/8973,40.763894,-73.947916
2,02M225,Ella Baker School,212-717-8809,"317 East  67 Street, New York, NY 10065",10065.0,MANHATTAN,https://www.myschools.nyc/en/schools/middle-school/8977,40.765359,-73.960059
2,02M255,M.S. 255 Salk School of Science,212-614-8785,"320 East 20Th Street, New York, NY 10003",10003.0,MANHATTAN,https://www.myschools.nyc/en/schools/middle-school/8981,40.735751,-73.981655
2,02M260,The Clinton School,212-524-4360,"10 East 15Th Street, New York, NY 10003",10003.0,MANHATTAN,https://www.myschools.nyc/en/schools/middle-school/8983,40.736518,-73.992725
25,25Q164,P.S. 164 Queens Valley,718-544-1083,"138-01 77 Avenue, Queens, NY 11367",11367.0,QUEENS,https://www.myschools.nyc/en/schools/middle-school/11890,40.720924,-73.823362
2,02M276,Battery Park City School,212-266-5800,"55 Battery Place, New York, NY 10280",10280.0,MANHATTAN,https://www.myschools.nyc/en/schools/middle-school/8985,40.70644,-74.017818
2,02M289,Hudson River Middle School,212-571-9268,"201 Warren Street, New York, NY 10282",10282.0,MANHATTAN,https://www.myschools.nyc/en/schools/middle-school/8993,40.716668,-74.013542
2,02M297,M.S. 297 (75 Morton),212-295-7555,"75 Morton Street, New York, NY 10014",10014.0,MANHATTAN,https://www.myschools.nyc/en/schools/middle-school/8998,40.730999,-74.007191
2,02M312,New York City Lab Middle School for Collaborative Studies,212-691-6119,"333 West  17 Street, New York, NY 10011",10011.0,MANHATTAN,https://www.myschools.nyc/en/schools/middle-school/9004,40.742129,-74.002198
2,02M347,The 47 American Sign Language & English Lower School,917-326-6609,"223 East 23 Street, New York, NY 10010",10010.0,MANHATTAN,https://www.myschools.nyc/en/schools/middle-school/9010,40.738548,-73.982455
2,02M397,Spruce Street School,212-266-4800,"12 Spruce Street, New York, NY 10038",10038.0,MANHATTAN,https://www.myschools.nyc/en/schools/middle-school/9017,40.711132,-74.005277
2,02M407,Institute for Collaborative Education,212-475-7972,"345 East  15Th Street, New York, NY 10003",10003.0,MANHATTAN,https://www.myschools.nyc/en/schools/middle-school/9022,40.732447,-73.983031
2,02M408,Professional Performing Arts School,212-247-8652,"328 West  48 Street, New York, NY 10036",10036.0,MANHATTAN,https://www.myschools.nyc/en/schools/middle-school/9025,40.761448,-73.988019
2,02M413,School of the Future Middle and High School,212-475-8086,"127 East  22 Street, New York, NY 10010",10010.0,MANHATTAN,https://www.myschools.nyc/en/schools/middle-school/9029,40.738952,-73.985479
3,03M076,P.S. 076 A. Philip Randolph,212-678-2865,"220 West 121 Street, New York, NY 10027",10027.0,MANHATTAN,https://www.myschools.nyc/en/schools/middle-school/9131,40.806768,-73.951061
2,02M422,Quest to Learn,212-488-3645,"351 West  18 Street, New York, NY 10011",10011.0,MANHATTAN,https://www.myschools.nyc/en/schools/middle-school/9036,40.742867,-74.002136
2,02M442,"Ballet Tech, NYC Public School for Dance",212-254-1803,"890 Broadway, New York, NY 10003",10003.0,MANHATTAN,https://www.myschools.nyc/en/schools/middle-school/9043,40.738604,-73.989911
2,02M896,Lower Manhattan Community Middle School,646-826-8100,"26 Broadway, New York, NY 10004",10004.0,MANHATTAN,https://www.myschools.nyc/en/schools/middle-school/9069,40.70568,-74.013302
2,02M933,City Knoll Middle School,212-695-9115,"425 West 33Rd Street, New York, NY 10001",10001.0,MANHATTAN,https://www.myschools.nyc/en/schools/middle-school/9070,40.753091,-73.99764
3,03M054,J.H.S. 054 Booker T. Washington,212-678-2861,"103 West 107 Street, New York, NY 10025",10025.0,MANHATTAN,https://www.myschools.nyc/en/schools/middle-school/9129,40.800119,-73.962837
3,03M149,P.S. 149 Sojourner Truth,646-672-9020,"41 West 117 Street, New York, NY 10026",10026.0,MANHATTAN,https://www.myschools.nyc/en/schools/middle-school/9142,40.802136,-73.947828
3,03M180,P.S. 180 Hugo Newman,212-678-2849,"370 West 120Th Street, New York, NY 10027",10027.0,MANHATTAN,https://www.myschools.nyc/en/schools/middle-school/9151,40.807843,-73.955569
3,03M191,The Riverside School for Makers and Artists,347-478-5228,"300 West 61St Street, New York, NY 10023",10023.0,MANHATTAN,https://www.myschools.nyc/en/schools/middle-school/9156,40.772883,-73.989609
3,03M243,M.S. 243 Center School,212-799-1477,"100 West  84 Street, New York, NY 10024",10024.0,MANHATTAN,https://www.myschools.nyc/en/schools/middle-school/9163,40.785287,-73.97343
6,06M346,Community Health Academy of the Heights,212-342-6600,"504 West 158Th Street, New York, NY 10032",10032.0,MANHATTAN,https://www.myschools.nyc/en/schools/middle-school/9513,40.833687,-73.942072
3,03M245,M.S. M245 The Computer School,917-441-0873,"100 West  77 Street, New York, NY 10024",10024.0,MANHATTAN,https://www.myschools.nyc/en/schools/middle-school/9164,40.780822,-73.976855
3,03M247,M.S. M247 Dual Language Middle School,212-496-1050,"100 West  77 Street, New York, NY 10024",10024.0,MANHATTAN,https://www.myschools.nyc/en/schools/middle-school/9165,40.780822,-73.976855
3,03M250,M.S. 250 West Side Collaborative Middle School,212-866-6313,"735 West End Avenue, New York, NY 10025",10025.0,MANHATTAN,https://www.myschools.nyc/en/schools/middle-school/9166,40.795157,-73.973292
3,03M256,Lafayette Academy,212-222-2857,"154 West  93 Street, New York, NY 10025",10025.0,MANHATTAN,https://www.myschools.nyc/en/schools/middle-school/9167,40.791709,-73.970802
3,03M862,Mott Hall II,212-678-2960,"234 West 109 Street, New York, NY 10025",10025.0,MANHATTAN,https://www.myschools.nyc/en/schools/middle-school/9195,40.802917,-73.965613
3,03M258,Community Action School - MS 258,212-678-5888,"154 West  93 Street, New York, NY 10025",10025.0,MANHATTAN,https://www.myschools.nyc/en/schools/middle-school/9168,40.791709,-73.970802
3,03M291,West End Secondary School,212-245-1506,"227-243 West 61St Street, New York, NY 10023",10023.0,MANHATTAN,https://www.myschools.nyc/en/schools/middle-school/9170,40.772007,-73.987479
3,03M333,P.S. 333 Manhattan School for Children,212-222-1450,"154 West  93 Street, New York, NY 10025",10025.0,MANHATTAN,https://www.myschools.nyc/en/schools/middle-school/9173,40.791709,-73.970802
3,03M334,The Anderson School,212-595-7193,"100 West  77 Street, New York, NY 10024",10024.0,MANHATTAN,https://www.myschools.nyc/en/schools/middle-school/9175,40.780822,-73.976855
27,27Q297,Hawtree Creek Middle School,718-659-3792,"121-10 Rockaway Boulevard, Queens, NY 11420",11420.0,QUEENS,https://www.myschools.nyc/en/schools/middle-school/12196,40.675771,-73.816938
3,03M415,Wadleigh Secondary School for the Performing & Visual Arts,212-749-5800,"215 West 114 Street, New York, NY 10026",10026.0,MANHATTAN,https://www.myschools.nyc/en/schools/middle-school/9180,40.802207,-73.954142
3,03M421,West Prep Academy,212-280-8502,"150 West 105 Street, New York, NY 10025",10025.0,MANHATTAN,https://www.myschools.nyc/en/schools/middle-school/9182,40.799376,-73.965308
3,03M859,Special Music School,212-501-3318,"129 West  67 Street, New York, NY 10023",10023.0,MANHATTAN,https://www.myschools.nyc/en/schools/middle-school/9191,40.774919,-73.982745
3,03M860,Frederick Douglass Academy II Secondary School,212-865-9260,"215 West 114 Street, New York, NY 10026",10026.0,MANHATTAN,https://www.myschools.nyc/en/schools/middle-school/9194,40.802207,-73.954142
4,04M007,P.S. 007 Samuel Stern,212-860-5827,"160 East 120 Street, New York, NY 10035",10035.0,MANHATTAN,https://www.myschools.nyc/en/schools/middle-school/9237,40.801007,-73.939349
4,04M012,Tag Young Scholars,212-860-6003,"240 East 109 Street, New York, NY 10029",10029.0,MANHATTAN,https://www.myschools.nyc/en/schools/middle-school/9241,40.79307,-73.942303
4,04M057,James Weldon Johnson,212-876-5522,"176 East 115 Street, New York, NY 10029",10029.0,MANHATTAN,https://www.myschools.nyc/en/schools/middle-school/9249,40.797577,-73.94128
4,04M072,The Lexington Academy,212-860-5831,"131 East 104 Street, New York, NY 10029",10029.0,MANHATTAN,https://www.myschools.nyc/en/schools/middle-school/9253,40.791179,-73.947776
9,09X313,I.S. 313 School of Leadership Development,718-583-1736,"1600 Webster Avenue, Bronx, NY 10457",10457.0,BRONX,https://www.myschools.nyc/en/schools/middle-school/9908,40.840878,-73.904754
4,04M096,P.S. 096 Joseph Lanzetta,212-860-5851,"216 East 120 Street, New York, NY 10035",10035.0,MANHATTAN,https://www.myschools.nyc/en/schools/middle-school/9260,40.800256,-73.937558
4,04M108,P.S. 108 Assemblyman Angelo Del Toro Educational Complex,212-860-5803,"1615 Madison Avenue, New York, NY 10029",10029.0,MANHATTAN,https://www.myschools.nyc/en/schools/middle-school/9271,40.795146,-73.948368
4,04M171,P.S. 171 Patrick Henry,212-860-5801,"19 East 103 Street, New York, NY 10029",10029.0,MANHATTAN,https://www.myschools.nyc/en/schools/middle-school/9281,40.792122,-73.951961
4,04M206,P.S. 206 Jose Celso Barbosa,212-860-5809,"508 East 120 Street, New York, NY 10035",10035.0,MANHATTAN,https://www.myschools.nyc/en/schools/middle-school/9288,40.797467,-73.930868
4,04M224,M.S. 224 Manhattan East School for Arts & Academics,212-860-6047,"410 East 100 Street, New York, NY 10029",10029.0,MANHATTAN,https://www.myschools.nyc/en/schools/middle-school/9289,40.785671,-73.942548
4,04M372,Esperanza Preparatory Academy,212-722-6507,"240 East 109 Street, New York, NY 10029",10029.0,MANHATTAN,https://www.myschools.nyc/en/schools/middle-school/9291,40.79307,-73.942303
4,04M377,Renaissance School of the Arts,212-534-6072,"319 East 117 Street, New York, NY 10035",10035.0,MANHATTAN,https://www.myschools.nyc/en/schools/middle-school/9295,40.797302,-73.936365
4,04M610,Young Women's Leadership School,212-289-7593,"105 East 106Th Street, New York, NY 10029",10029.0,MANHATTAN,https://www.myschools.nyc/en/schools/middle-school/9301,40.792741,-73.947428
4,04M825,Isaac Newton Middle School for Math & Science,212-860-6006,"260 Pleasant Avenue, New York, NY 10029",10029.0,MANHATTAN,https://www.myschools.nyc/en/schools/middle-school/9304,40.793856,-73.934028
4,04M964,Central Park East II,212-860-5992,"433 East 100 Street, New York, NY 10029",10029.0,MANHATTAN,https://www.myschools.nyc/en/schools/middle-school/9305,40.785258,-73.941526
5,05M046,P.S. 046 Arthur Tappan,212-360-1519,"2987 Frederick Douglass Boulevard, New York, NY 10039",,,https://www.myschools.nyc/en/schools/middle-school/9354,,
5,05M123,P.S. 123 Mahalia Jackson,212-342-6200,"301 West 140 Street, New York, NY 10030",10030.0,MANHATTAN,https://www.myschools.nyc/en/schools/middle-school/9357,40.819767,-73.944433
5,05M148,Eagle Academy for Young Men of Harlem,212-694-6051,"6 Edgecombe Avenue, New York, NY 10030",10030.0,MANHATTAN,https://www.myschools.nyc/en/schools/middle-school/9372,40.817372,-73.947712
5,05M161,P.S. 161 Pedro Albizu Campos,212-690-5945,"499 West 133 Street, New York, NY 10027",10027.0,MANHATTAN,https://www.myschools.nyc/en/schools/middle-school/9377,40.81755,-73.953041
5,05M286,Urban Assembly Academy for Future Leaders,212-543-4960,"509 West 129 Street, New York, NY 10027",10027.0,MANHATTAN,https://www.myschools.nyc/en/schools/middle-school/9390,40.815256,-73.955325
32,32K554,All City Leadership Secondary School,718-246-6500,"321 Palmetto Street, Brooklyn, NY 11237",11237.0,BROOKLYN,https://www.myschools.nyc/en/schools/middle-school/13028,40.69737,-73.913171
5,05M362,Columbia Secondary School,212-666-1278,"425 West 123 Street, New York, NY 10027",10027.0,MANHATTAN,https://www.myschools.nyc/en/schools/middle-school/9394,40.810431,-73.955809
5,05M371,M.S. 371,212-690-5932,"425 West 130 Street, New York, NY 10027",10027.0,MANHATTAN,https://www.myschools.nyc/en/schools/middle-school/13247,40.814637,-73.951912
5,05M499,Frederick Douglass Academy,212-491-4107,"2581 7Th Avenue, New York, NY 10039",10039.0,MANHATTAN,https://www.myschools.nyc/en/schools/middle-school/9397,40.824319,-73.93712
5,05M514,New Design Middle School,212-281-6339,"625 West 133 Street, New York, NY 10027",10027.0,MANHATTAN,https://www.myschools.nyc/en/schools/middle-school/9398,40.819481,-73.95761
5,05M517,Teachers College Community School,212-316-8080,"168 Morningside Avenue, New York, NY 10027",10027.0,MANHATTAN,https://www.myschools.nyc/en/schools/middle-school/9399,40.81242,-73.953315
5,05M670,Thurgood Marshall Academy for Learning and Social Change,212-283-8055,"200-214 West 135Th Street, New York, NY 10030",10030.0,MANHATTAN,https://www.myschools.nyc/en/schools/middle-school/9403,40.815449,-73.944061
6,06M018,P.S. 018 Park Terrace,917-521-2220,"4124 9 Avenue, New York, NY 10034",10034.0,MANHATTAN,https://www.myschools.nyc/en/schools/middle-school/9456,40.871278,-73.911516
6,06M052,Harold O. Levy School,212-567-9162,"650 Academy Street, New York, NY 10034",10034.0,MANHATTAN,https://www.myschools.nyc/en/schools/middle-school/9464,40.866053,-73.924835
6,06M143,J.H.S. 143 Eleanor Roosevelt,212-927-7739,"511 West 182Nd Street, New York, NY 10033",10033.0,MANHATTAN,https://www.myschools.nyc/en/schools/middle-school/9475,40.848908,-73.930948
6,06M187,P.S./I.S. 187 Hudson Cliffs,212-927-8218,"349 Cabrini Boulevard, New York, NY 10040",10040.0,MANHATTAN,https://www.myschools.nyc/en/schools/middle-school/9487,40.856693,-73.937093
6,06M209,Hamilton Grange Middle School,2127759600,"500 West 138 Street, New York, NY 10031",10031.0,MANHATTAN,https://www.myschools.nyc/en/schools/middle-school/9495,40.820953,-73.951145
6,06M210,P.S./I.S. 210 - Twenty-first Century Academy for Community Leadership,212-283-0012,"501-503 West 152 Street, New York, NY 10031",10031.0,MANHATTAN,https://www.myschools.nyc/en/schools/middle-school/9496,40.829815,-73.94475
6,06M223,The Mott Hall School,212-281-5028,"71-111 Convent Ave, New York, NY 10027",10027.0,MANHATTAN,https://www.myschools.nyc/en/schools/middle-school/9500,40.815458,-73.952908
6,06M278,Paula Hedbavny School,917-521-2060,"421 W 219Th St, New York, NY 10034",10034.0,MANHATTAN,https://www.myschools.nyc/en/schools/middle-school/9502,40.871245,-73.912141
6,06M293,City College Academy of the Arts,212-567-3164,"4600 Broadway, New York, NY 10040",10040.0,MANHATTAN,https://www.myschools.nyc/en/schools/middle-school/9504,40.86079,-73.930672
6,06M311,Amistad Dual Language School,212-544-8021,"4862 Broadway, New York, NY 10034",10034.0,MANHATTAN,https://www.myschools.nyc/en/schools/middle-school/9505,40.866706,-73.923948
6,06M319,M.S. 319 - Maria Teresa,212-923-3827,"21 Jumel Place, New York, NY 10032",10032.0,MANHATTAN,https://www.myschools.nyc/en/schools/middle-school/9508,40.839305,-73.936159
6,06M322,Middle School 322,212-304-0853,"4600 Broadway, New York, NY 10040",10040.0,MANHATTAN,https://www.myschools.nyc/en/schools/middle-school/9509,40.86079,-73.930672
6,06M324,M.S. 324 - Patria Mirabal,212-923-4057,"21 Jumel Place, New York, NY 10032",10032.0,MANHATTAN,https://www.myschools.nyc/en/schools/middle-school/9510,40.839305,-73.936159
6,06M328,Community Math & Science Prep,917-521-2508,"401 West 164 Street, New York, NY 10032",10032.0,MANHATTAN,https://www.myschools.nyc/en/schools/middle-school/9511,40.836536,-73.937159
6,06M348,Washington Heights Expeditionary Learning School,212-781-0524,"511 West 182Nd Street, New York, NY 10033",10033.0,MANHATTAN,https://www.myschools.nyc/en/schools/middle-school/9514,40.848908,-73.930948
6,06M349,Harbor Heights,212-568-6052,"306 Fort Washington Avenue, New York, NY 10033",10033.0,MANHATTAN,https://www.myschools.nyc/en/schools/middle-school/9518,40.845469,-73.940468
6,06M366,Washington Heights Academy,212-304-3320,"202 Sherman Ave, New York, NY 10034",10034.0,MANHATTAN,https://www.myschools.nyc/en/schools/middle-school/9519,40.865384,-73.92114
6,06M528,I.S. 528 Bea Fuller Rodgers School,212-740-4900,"180 Wadsworth Avenue, New York, NY 10033",10033.0,MANHATTAN,https://www.myschools.nyc/en/schools/middle-school/9530,40.85051,-73.934485
7,07X005,P.S. 5 Port Morris,718-292-2683,"564 Jackson Avenue, Bronx, NY 10455",10455.0,BRONX,https://www.myschools.nyc/en/schools/middle-school/9575,40.813728,-73.908886
7,07X029,P.S./M.S. 029 Melrose School,718-292-3785,"758 Courtlandt Avenue, Bronx, NY 10451",10451.0,BRONX,https://www.myschools.nyc/en/schools/middle-school/9584,40.821515,-73.917279
7,07X031,P.S./M.S. 031 The William Lloyd Garrison,718-292-4397,"250 East 156 Street, Bronx, NY 10451",10451.0,BRONX,https://www.myschools.nyc/en/schools/middle-school/9594,40.82316,-73.921631
7,07X151,J.H.S. 151 Lou Gehrig,718-292-0260,"250 East 156 Street, Bronx, NY 10451",10451.0,BRONX,https://www.myschools.nyc/en/schools/middle-school/9603,40.82316,-73.921631
7,07X221,South Bronx Preparatory: A College Board School,718-292-2211,"360 East 145 Street, Bronx, NY 10454",10454.0,BRONX,https://www.myschools.nyc/en/schools/middle-school/9616,40.813983,-73.920782
7,07X223,The Laboratory School of Finance and Technology: X223,718-585-8202,"360 East 145 Street, Bronx, NY 10454",10454.0,BRONX,https://www.myschools.nyc/en/schools/middle-school/9618,40.813983,-73.920782
7,07X224,Science School for Exploration and Discovery,718-665-9804,"345 Brook Avenue, Bronx, NY 10454",10454.0,BRONX,https://www.myschools.nyc/en/schools/middle-school/9619,40.81004,-73.917792
7,07X296,South Bronx Academy for Applied Media,718-401-0059,"778 Forest Avenue, Bronx, NY 10456",10456.0,BRONX,https://www.myschools.nyc/en/schools/middle-school/9624,40.818874,-73.905927
7,07X298,Academy of Public Relations,718-665-8866,"778 Forest Avenue, Bronx, NY 10456",10456.0,BRONX,https://www.myschools.nyc/en/schools/middle-school/9625,40.818874,-73.905927
7,07X343,Academy of Applied Mathematics and Technology,718-292-3883,"345 Brook Avenue, Bronx, NY 10454",10454.0,BRONX,https://www.myschools.nyc/en/schools/middle-school/9627,40.81004,-73.917792
7,07X500,Hostos-Lincoln Academy of Science,718-402-5640,"600 Saint Ann'S Avenue, Bronx, NY 10455",10455.0,BRONX,https://www.myschools.nyc/en/schools/middle-school/9638,40.815498,-73.91224
7,07X551,The Urban Assembly Bronx Academy of Letters,718-401-4891,"339 Morris Avenue, Bronx, NY 10451",10451.0,BRONX,https://www.myschools.nyc/en/schools/middle-school/9643,40.813641,-73.925313
7,07X584,I.S. 584,718-742-2900,"600 Saint Ann'S Avenue, Bronx, NY 10455",10455.0,BRONX,https://www.myschools.nyc/en/schools/middle-school/9644,40.815498,-73.91224
8,08X071,P.S. 071 Rose E. Scala,718-822-5351,"3040 Roberts Avenue, Bronx, NY 10461",10461.0,BRONX,https://www.myschools.nyc/en/schools/middle-school/9702,40.845787,-73.829829
8,08X101,M.S. X101 Edward R. Byrne,718-829-6372,"2750 Lafayette Avenue, Bronx, NY 10465",10465.0,BRONX,https://www.myschools.nyc/en/schools/middle-school/9716,40.827471,-73.829753
8,08X123,J.H.S. 123 James M. Kieran,718-328-2105,"1025 Morrison Avenue, Bronx, NY 10472",10472.0,BRONX,https://www.myschools.nyc/en/schools/middle-school/9722,40.825403,-73.873666
8,08X131,J.H.S. 131 Albert Einstein,718-991-7490,"885 Bolton Avenue, Bronx, NY 10473",10473.0,BRONX,https://www.myschools.nyc/en/schools/middle-school/9726,40.823526,-73.859662
8,08X269,Bronx Studio School for Writers and Artists,718-893-5158,"928 Simpson Street, Bronx, NY 10459",10459.0,BRONX,https://www.myschools.nyc/en/schools/middle-school/9739,40.820579,-73.893128
8,08X301,M.S. 301 Paul L. Dunbar,718-585-2950,"890 Cauldwell Avenue, Bronx, NY 10456",10456.0,BRONX,https://www.myschools.nyc/en/schools/middle-school/9742,40.822474,-73.907194
8,08X302,M.S. 302 Luisa Dessus Cruz,718-901-3520,"681 Kelly Street, Bronx, NY 10455",10455.0,BRONX,https://www.myschools.nyc/en/schools/middle-school/9743,40.815429,-73.902139
8,08X337,The School for Inquiry and Social Justice,718-860-4181,"1025 Morrison Avenue, Bronx, NY 10472",10472.0,BRONX,https://www.myschools.nyc/en/schools/middle-school/9751,40.825403,-73.873666
8,08X367,"Archimedes Academy for Math, Science and Technology Applications",718-617-5046,"456 White Plains Road, Bronx, NY 10473",10473.0,BRONX,https://www.myschools.nyc/en/schools/middle-school/9755,40.814833,-73.85658
8,08X371,Urban Institute of Mathematics,718-823-6042,"650 Hollywood Avenue, Bronx, NY 10465",10465.0,BRONX,https://www.myschools.nyc/en/schools/middle-school/9756,40.826526,-73.818417
8,08X375,The Bronx Mathematics Preparatory School,718-542-5063,"456 White Plains Road, Bronx, NY 10473",10473.0,BRONX,https://www.myschools.nyc/en/schools/middle-school/9757,40.814833,-73.85658
8,08X376,Antonia Pantoja Preparatory Academy: A College Board School,718-824-3152,"1980 Lafayette Avenue, Bronx, NY 10473",10473.0,BRONX,https://www.myschools.nyc/en/schools/middle-school/9759,40.82229,-73.856167
8,08X424,The Hunts Point School,718-328-1972,"730 Bryant Avenue, Bronx, NY 10474",10474.0,BRONX,https://www.myschools.nyc/en/schools/middle-school/9763,40.815455,-73.88577
8,08X448,Soundview Academy for Culture and Scholarship,718-991-4027,"885 Bolton Avenue, Bronx, NY 10473",10473.0,BRONX,https://www.myschools.nyc/en/schools/middle-school/9765,40.823526,-73.859662
8,08X467,Mott Hall Community School,718-829-3254,"650 Hollywood Avenue, Bronx, NY 10465",10465.0,BRONX,https://www.myschools.nyc/en/schools/middle-school/9767,40.826526,-73.818417
8,08X562,Blueprint Middle School,718-822-2780,"1111 Pugsley Avenue, Bronx, NY 10472",10472.0,BRONX,https://www.myschools.nyc/en/schools/middle-school/9772,40.829232,-73.856734
9,09X004,P.S./M.S. 004 Crotona Park West,718-583-6655,"1701 Fulton Avenue, Bronx, NY 10457",10457.0,BRONX,https://www.myschools.nyc/en/schools/middle-school/9826,40.840891,-73.898166
9,09X022,J.H.S. 022 Jordan L. Mott,718-681-6850,"270 East 167 Street, Bronx, NY 10456",10456.0,BRONX,https://www.myschools.nyc/en/schools/middle-school/9833,40.833131,-73.914027
9,09X117,I.S. 117 Joseph H. Wade,718-583-7750,"1865 Morris Avenue, Bronx, NY 10453",10453.0,BRONX,https://www.myschools.nyc/en/schools/middle-school/9867,40.848547,-73.908416
9,09X128,Mott Hall III,718-842-6138,"580 Crotona Park South, Bronx, NY 10456",10456.0,BRONX,https://www.myschools.nyc/en/schools/middle-school/9871,40.835286,-73.900751
9,09X215,Kappa,718-590-5455,"3630 Third Avenue, Bronx, NY 10456",10456.0,BRONX,https://www.myschools.nyc/en/schools/middle-school/9885,40.833511,-73.90449
9,09X218,P.S./I.S. 218 Rafael Hernandez Dual Language Magnet School,718-410-7230,"1220 Gerard Avenue, Bronx, NY 10452",10452.0,BRONX,https://www.myschools.nyc/en/schools/middle-school/9886,40.835847,-73.920026
9,09X219,I.S. 219 New Venture School,718-681-7093,"3630 Third Avenue, Bronx, NY 10456",10456.0,BRONX,https://www.myschools.nyc/en/schools/middle-school/9888,40.833511,-73.90449
9,09X229,I.S. 229 Roland Patterson,718-583-6266,"275 Harlem River Park Bridge, Bronx, NY 10453",10453.0,BRONX,https://www.myschools.nyc/en/schools/middle-school/9890,40.852536,-73.921467
9,09X231,Eagle Academy for Young Men,718-466-8000,"4143 Third Avenue, Bronx, NY 10457",10457.0,BRONX,https://www.myschools.nyc/en/schools/middle-school/9892,40.844958,-73.89705
9,09X232,I.S. 232,718-583-7007,"1700 Macombs Road, Bronx, NY 10453",10453.0,BRONX,https://www.myschools.nyc/en/schools/middle-school/9893,40.849532,-73.916077
9,09X241,The Urban Assembly School for Applied Math and Science,718-466-7800,"1595 Bathgate Avenue, Bronx, NY 10457",10457.0,BRONX,https://www.myschools.nyc/en/schools/middle-school/9897,40.839244,-73.901316
9,09X303,I.S. X303 Leadership & Community Service,718-583-5466,"1700 Macombs Road, Bronx, NY 10453",10453.0,BRONX,https://www.myschools.nyc/en/schools/middle-school/9906,40.849532,-73.916077
9,09X323,Bronx Writing Academy,718-293-9048,"270 East 167 Street, Bronx, NY 10456",10456.0,BRONX,https://www.myschools.nyc/en/schools/middle-school/9909,40.833131,-73.914027
9,09X324,Bronx Early College Academy for Teaching & Learning,718-681-8287,"250 East 164 Street, Bronx, NY 10456",10456.0,BRONX,https://www.myschools.nyc/en/schools/middle-school/9911,40.828696,-73.917668
9,09X327,Comprehensive Model School Project M.S. 327,718-294-8111,"1501 Jerome Avenue, Bronx, NY 10452",10452.0,BRONX,https://www.myschools.nyc/en/schools/middle-school/9913,40.842495,-73.916082
9,09X328,New Millennium Bronx Academy of the Arts,718-588-8308,"1000 Teller Avenue, Bronx, NY 10456",10456.0,BRONX,https://www.myschools.nyc/en/schools/middle-school/9914,40.827941,-73.914374
9,09X339,I.S. 339,718-583-6767,"1600 Webster Avenue, Bronx, NY 10457",10457.0,BRONX,https://www.myschools.nyc/en/schools/middle-school/9916,40.840878,-73.904754
9,09X361,The Highbridge Green School,718-410-5770,"200 West 167Th Street, Bronx, NY 10452",10452.0,BRONX,https://www.myschools.nyc/en/schools/middle-school/9919,40.838224,-73.927891
9,09X413,Bronx School for Medical Science,718-410-4040,"240 East 172 Street, Bronx, NY 10457",10457.0,BRONX,https://www.myschools.nyc/en/schools/middle-school/9925,40.840422,-73.91091
9,09X454,Science and Technology Academy: A Mott Hall School,718-293-4017,"250 East 164 Street, Bronx, NY 10456",10456.0,BRONX,https://www.myschools.nyc/en/schools/middle-school/9931,40.828696,-73.917668
9,09X505,"Bronx School for Law, Government and Justice",718-410-3430,"244 East 163 Street, Bronx, NY 10451",10451.0,BRONX,https://www.myschools.nyc/en/schools/middle-school/9936,40.827607,-73.918681
9,09X568,Young Women's Leadership School of the Bronx,718-731-2590,"1865 Morris Avenue, Bronx, NY 10453",10453.0,BRONX,https://www.myschools.nyc/en/schools/middle-school/9943,40.848547,-73.908416
9,09X593,South Bronx International Middle School,718-588-0341,"1000 Teller Avenue, Bronx, NY 10456",10456.0,BRONX,https://www.myschools.nyc/en/schools/middle-school/9945,40.827941,-73.914374
9,09X594,New Pathways Academy,718-588-8349,"1000 Teller Avenue, Bronx, NY 10456",10456.0,BRONX,https://www.myschools.nyc/en/schools/middle-school/9946,40.827941,-73.914374
10,10X003,P.S. 3 Raul Julia Micro Society,718-584-1899,"2100 Lafontaine Avenue, Bronx, NY 10457",10457.0,BRONX,https://www.myschools.nyc/en/schools/middle-school/10031,40.849897,-73.892289
10,10X015,P.S. X015 Institute for Environmental Learning,718-563-0473,"2195 Andrews Avenue, Bronx, NY 10453",10453.0,BRONX,https://www.myschools.nyc/en/schools/middle-school/10040,40.85881,-73.909746
10,10X020,"PS/MS 20 P.O.George J. Werdann, III",718-515-9370,"3050 Webster Avenue, Bronx, NY 10467",10467.0,BRONX,https://www.myschools.nyc/en/schools/middle-school/10042,40.870002,-73.878875
10,10X037,P.S. X037 - Multiple Intelligence School,718-796-0360,"360 West 230 Street, Bronx, NY 10463",10463.0,BRONX,https://www.myschools.nyc/en/schools/middle-school/10053,40.880263,-73.910466
10,10X045,Thomas C. Giordano Middle School 45,718-584-1660,"2502 Lorillard Place, Bronx, NY 10458",10458.0,BRONX,https://www.myschools.nyc/en/schools/middle-school/10055,40.858692,-73.887214
10,10X080,J.H.S. 080 The Mosholu Parkway,718-405-6300,"149 East Mosholu Pkwy N, Bronx, NY 10467",10467.0,BRONX,https://www.myschools.nyc/en/schools/middle-school/10066,40.876299,-73.881532
10,10X086,P.S. 086 Kingsbridge Heights,718-584-5585,"2756 Reservoir Avenue, Bronx NY 10468",10468.0,BRONX,https://www.myschools.nyc/en/schools/middle-school/10070,40.869835,-73.89874
10,10X095,P.S. 095 Sheila Mencher,718-796-9200,"3961 Hillman Avenue, Bronx, NY 10463",10463.0,BRONX,https://www.myschools.nyc/en/schools/middle-school/10076,40.882898,-73.891256
10,10X118,J.H.S. 118 William W. Niles,718-584-2330,"577 East 179 Street, Bronx, NY 10457",10457.0,BRONX,https://www.myschools.nyc/en/schools/middle-school/10077,40.848339,-73.89308
10,10X141,Riverdale / Kingsbridge Academy,718-796-8516,"660 West 237 Street, Bronx, NY 10463",10463.0,BRONX,https://www.myschools.nyc/en/schools/middle-school/10078,40.888338,-73.913486
10,10X206,I.S. 206 Ann Mersereau,718-584-1570,"2280 Aqueduct Avenue, Bronx, NY 10468",10468.0,BRONX,https://www.myschools.nyc/en/schools/middle-school/10082,40.859686,-73.906495
10,10X225,Theatre Arts Production Company School,718-584-0832,"2225 Webster Avenue, Bronx, NY 10457",10457.0,BRONX,https://www.myschools.nyc/en/schools/middle-school/10089,40.854515,-73.896703
10,10X228,Jonas Bronck Academy,718-365-2502,"400 East Fordham Road, Bronx, NY 10458",10458.0,BRONX,https://www.myschools.nyc/en/schools/middle-school/10092,40.8609,-73.891931
10,10X243,West Bronx Academy for the Future,718-563-7139,"500 East Fordham Road, Bronx, NY 10458",10458.0,BRONX,https://www.myschools.nyc/en/schools/middle-school/10095,40.860043,-73.888267
10,10X244,The New School for Leadership and Journalism,718-601-2869,"120 West 231 Street, Bronx, NY 10463",10463.0,BRONX,https://www.myschools.nyc/en/schools/middle-school/10096,40.875916,-73.90111
10,10X254,I.S. 254,718-220-8700,"2452 Washington Avenue, Bronx, NY 10458",10458.0,BRONX,https://www.myschools.nyc/en/schools/middle-school/10098,40.858815,-73.890232
10,10X279,"P.S. 279 Captain Manuel Rivera, Jr.",718-584-6004,"2100 Walton Avenue, Bronx, NY 10453",10453.0,BRONX,https://www.myschools.nyc/en/schools/middle-school/10101,40.854432,-73.905566
10,10X280,P.S./M.S. 280 Mosholu Parkway,718-405-6360,"3202 Steuben Avenue, Bronx, NY 10467",10467.0,BRONX,https://www.myschools.nyc/en/schools/middle-school/10103,40.877202,-73.881773
10,10X308,Bronx Dance Academy School,718-515-0410,"3617 Bainbridge Avenue, Bronx, NY 10467",10467.0,BRONX,https://www.myschools.nyc/en/schools/middle-school/10109,40.885116,-73.877679
10,10X315,P.S. 315 Lab School,929-237-7750,"2865 Claflin Avenue, Bronx, NY 10468",10468.0,BRONX,https://www.myschools.nyc/en/schools/middle-school/10112,40.873239,-73.899722
10,10X331,The Bronx School of Young Leaders,718-583-4146,"40 West Tremont Avenue, Bronx, NY 10453",10453.0,BRONX,https://www.myschools.nyc/en/schools/middle-school/10114,40.851823,-73.91118
10,10X342,International School for Liberal Arts,718-329-8570,"2780 Reservoir Avenue, Bronx, NY 10468",10468.0,BRONX,https://www.myschools.nyc/en/schools/middle-school/10118,40.870293,-73.898309
10,10X363,Academy For Personal Leadership And Excellence,718-220-3139,"120 East 184 Street, Bronx, NY 10468",10468.0,BRONX,https://www.myschools.nyc/en/schools/middle-school/10125,40.859752,-73.900161
10,10X368,In-Tech Academy,718-432-4300,"2975 Tibbett Avenue, Bronx, NY 10463",10463.0,BRONX,https://www.myschools.nyc/en/schools/middle-school/10127,40.879368,-73.909896
10,10X390,M.S. 390,718-583-5501,"1930 Andrews Avenue, Bronx, NY 10453",10453.0,BRONX,https://www.myschools.nyc/en/schools/middle-school/10132,40.854701,-73.913197
10,10X391,The Angelo Patri Middle School,718-584-1295,"2225 Webster Avenue, Bronx, NY 10457",10457.0,BRONX,https://www.myschools.nyc/en/schools/middle-school/10133,40.854515,-73.896703
10,10X447,Creston Academy,718-367-5035,"125 East 181 Street, Bronx, NY 10453",10453.0,BRONX,https://www.myschools.nyc/en/schools/middle-school/10144,40.854872,-73.903458
11,11X019,P.S. 019 Judith K. Weiss,718-324-1924,"4318 Katonah Avenue, Bronx, NY 10470",10470.0,BRONX,https://www.myschools.nyc/en/schools/middle-school/10227,40.899295,-73.8675
11,11X083,P.S./M.S. 083 Donald Hertz,718-863-1993,"950 Rhinelander Avenue, Bronx, NY 10462",10462.0,BRONX,https://www.myschools.nyc/en/schools/middle-school/10235,40.849395,-73.859249
11,11X089,P.S. /M.S. 089 Bronx,718-653-0835,"980 Mace Avenue, Bronx, NY 10469",10469.0,BRONX,https://www.myschools.nyc/en/schools/middle-school/10240,40.863055,-73.859387
11,11X127,J.H.S. 127 The Castle Hill,718-892-8600,"1560 Purdy Street, Bronx, NY 10462",10462.0,BRONX,https://www.myschools.nyc/en/schools/middle-school/10259,40.837931,-73.853524
11,11X144,J.H.S. 144 Michelangelo,718-794-9749,"2545 Gunther Avenue, Bronx, NY 10469",10469.0,BRONX,https://www.myschools.nyc/en/schools/middle-school/10260,40.863735,-73.83607
11,11X175,P.S./M.S. 175 City Island,718-885-1093,"200 City Island Avenue, Bronx, NY 10464",10464.0,BRONX,https://www.myschools.nyc/en/schools/middle-school/10268,40.843873,-73.785219
11,11X180,M.S. 180 Dr. Daniel Hale Williams,718-904-5650,"700 Baychester Avenue, Bronx, NY 10475",10475.0,BRONX,https://www.myschools.nyc/en/schools/middle-school/10271,40.87302,-73.833776
11,11X181,I.S. 181 Pablo Casals,718-904-5600,"800 Baychester Avenue, Bronx, NY 10475",10475.0,BRONX,https://www.myschools.nyc/en/schools/middle-school/10272,40.87529,-73.833912
11,11X194,P.S./M.S. 194,718-892-5270,"2365 Waterbury Avenue, Bronx, NY 10462",10462.0,BRONX,https://www.myschools.nyc/en/schools/middle-school/10275,40.834782,-73.846632
11,11X287,North Bronx School of Empowerment,718-652-0519,"3710 Barnes Avenue, Bronx, NY 10467",10467.0,BRONX,https://www.myschools.nyc/en/schools/middle-school/10282,40.880873,-73.860904
11,11X326,Bronx Green Middle School,718-325-6593,"2441 Wallace Avenue, Bronx, NY 10467",10467.0,BRONX,https://www.myschools.nyc/en/schools/middle-school/10286,40.862109,-73.864577
11,11X355,Bronx Alliance Middle School,718-652-2060,"3750 Baychester Avenue, Bronx, NY 10466",10466.0,BRONX,https://www.myschools.nyc/en/schools/middle-school/10287,40.884953,-73.840524
11,11X370,Leaders of Tomorrow,718-994-1028,"3710 Barnes Avenue, Bronx, NY 10467",10467.0,BRONX,https://www.myschools.nyc/en/schools/middle-school/10290,40.880873,-73.860904
11,11X462,Cornerstone Academy for Social Action Middle School,718-794-7970,"3441 Steenwick Avenue, Bronx, NY 10475",10475.0,BRONX,https://www.myschools.nyc/en/schools/middle-school/10293,40.883025,-73.830366
11,11X468,Pelham Academy of Academics and Community Engagement,718-881-3136,"2441 Wallace Avenue, Bronx, NY 10467",10467.0,BRONX,https://www.myschools.nyc/en/schools/middle-school/10294,40.862109,-73.864577
11,11X498,P.S./M.S. 11X498 - VAN NEST ACADEMY,718-409-3001,"1640 Bronxdale Ave, Bronx, NY 10462",10462.0,BRONX,https://www.myschools.nyc/en/schools/middle-school/10297,40.84473,-73.858207
11,11X529,One World Middle School at Edenwald,718-515-6780,"3750 Baychester Avenue, Bronx, NY 10466",10466.0,BRONX,https://www.myschools.nyc/en/schools/middle-school/10303,40.884953,-73.840524
11,11X532,Baychester Middle School,718-547-1890,"3750 Baychester Avenue, Bronx, NY 10466",10466.0,BRONX,https://www.myschools.nyc/en/schools/middle-school/10304,40.884953,-73.840524
11,11X556,Bronx Park Middle School,718-652-6090,"2441 Wallace Avenue, Bronx, NY 10467",10467.0,BRONX,https://www.myschools.nyc/en/schools/middle-school/10308,40.862109,-73.864577
11,11X566,Pelham Gardens Middle School,718-794-9750,"2545 Gunther Avenue, Bronx, NY 10469",10469.0,BRONX,https://www.myschools.nyc/en/schools/middle-school/10309,40.863735,-73.83607
12,12X098,J.H.S. 098 Herman Ridder,718-589-8200,"1619 Boston Road, Bronx, NY 10460",10460.0,BRONX,https://www.myschools.nyc/en/schools/middle-school/10378,40.8359,-73.890458
12,12X129,M.S. 129 Academy for Independent Learning and Leadership,718-933-5976,"2055 Mapes Avenue, Bronx, NY 10460",10460.0,BRONX,https://www.myschools.nyc/en/schools/middle-school/10379,40.845878,-73.886184
12,12X190,E.S.M.T- I.S. 190,718-620-9423,"1550 Crotona Park East, Bronx, NY 10460",10460.0,BRONX,https://www.myschools.nyc/en/schools/middle-school/10384,40.836575,-73.892817
12,12X211,P.S. 211,718-901-0436,"1919 Prospect Avenue, Bronx, NY 10457",10457.0,BRONX,https://www.myschools.nyc/en/schools/middle-school/10389,40.843546,-73.889755
12,12X214,P.S. 214,718-589-6728,"1970 West Farms Road, Bronx, NY 10460",10460.0,BRONX,https://www.myschools.nyc/en/schools/middle-school/10394,40.839565,-73.880358
12,12X217,School of Performing Arts,718-589-4844,"977 Fox Street, Bronx, NY 10459",10459.0,BRONX,https://www.myschools.nyc/en/schools/middle-school/10397,40.822443,-73.893902
12,12X242,Mott Hall V,718-620-8160,"1551 East 172Nd Street, Bronx, NY 10472",10472.0,BRONX,https://www.myschools.nyc/en/schools/middle-school/10399,40.831416,-73.877785
12,12X318,"I.S. X318 Math, Science & Technology Through Arts",718-294-8504,"1919 Prospect Avenue, Bronx, NY 10457",10457.0,BRONX,https://www.myschools.nyc/en/schools/middle-school/10413,40.843546,-73.889755
12,12X267,Bronx Latin,718-991-6349,"800 Home Street, Bronx, NY 10456",10456.0,BRONX,https://www.myschools.nyc/en/schools/middle-school/10403,40.827743,-73.900105
12,12X271,East Bronx Academy for the Future,718-861-8641,"1716 Southern Boulevard, Bronx, NY 10460",10460.0,BRONX,https://www.myschools.nyc/en/schools/middle-school/10405,40.836356,-73.888361
12,12X273,Frederick Douglass Academy V. Middle School,718-561-1617,"2111 Crotona Avenue, Bronx, NY 10457",10457.0,BRONX,https://www.myschools.nyc/en/schools/middle-school/10406,40.848472,-73.888561
12,12X286,Fannie Lou Hamer Middle School,718-319-7270,"1001 Jennings Street, Bronx, NY 10460",10460.0,BRONX,https://www.myschools.nyc/en/schools/middle-school/10407,40.831165,-73.887094
12,12X316,Kappa III,718-561-3580,"2055 Mapes Avenue, Bronx, NY 10460",10460.0,BRONX,https://www.myschools.nyc/en/schools/middle-school/10412,40.845878,-73.886184
12,12X341,Accion Academy,718-378-1649,"977 Fox Street, Bronx, NY 10459",10459.0,BRONX,https://www.myschools.nyc/en/schools/middle-school/10414,40.822443,-73.893902
12,12X383,Emolior Academy,718-842-2670,"1970 West Farms Road, Bronx, NY 10460",10460.0,BRONX,https://www.myschools.nyc/en/schools/middle-school/10415,40.839565,-73.880358
13,13K113,M.S. 113 Ronald Edmonds Learning Center,718-834-6734,"300 Adelphi Street, Brooklyn, NY 11205",11205.0,BROOKLYN,https://www.myschools.nyc/en/schools/middle-school/10484,40.688811,-73.971009
13,13K265,Dr. Susan S. McKinney Secondary School of the Arts,718-834-6760,"101 Park Avenue, Brooklyn, NY 11205",11205.0,BROOKLYN,https://www.myschools.nyc/en/schools/middle-school/10490,40.696324,-73.97578
13,13K266,M.S. 266 - Park Place Community Middle School,718-245-8766,"62 Park Place, Brooklyn, NY 11217",11217.0,BROOKLYN,https://www.myschools.nyc/en/schools/middle-school/10491,40.678983,-73.976497
13,13K301,Satellite East Middle School,7182458766,"31 New York Avenue, Brooklyn, NY 11216",11216.0,BROOKLYN,https://www.myschools.nyc/en/schools/middle-school/10499,40.679097,-73.94684
13,13K313,Dock Street School for STEAM Studies,718-780-7660,"19 Dock Street, Brooklyn, NY 11201",11201.0,BROOKLYN,https://www.myschools.nyc/en/schools/middle-school/10504,40.703106,-73.992549
13,13K351,The Urban Assembly Unison School,718-399-1061,"170 Gates Avenue, Brooklyn, NY 11238",11238.0,BROOKLYN,https://www.myschools.nyc/en/schools/middle-school/10506,40.68505,-73.960659
13,13K492,Academy of Arts and Letters,718-222-1605,"225 Adelphi Street, Brooklyn, NY 11205",11205.0,BROOKLYN,https://www.myschools.nyc/en/schools/middle-school/10512,40.690765,-73.971376
13,13K527,Urban Assembly Institute of Math and Science for Young Women,718-260-2300,"283 Adams Street, Brooklyn, NY 11201",11201.0,BROOKLYN,https://www.myschools.nyc/en/schools/middle-school/10516,40.694682,-73.988853
13,13K691,Fort Greene Preparatory Academy,718-254-9401,"100 Clermont Avenue, Brooklyn, NY 11205",11205.0,BROOKLYN,https://www.myschools.nyc/en/schools/middle-school/10522,40.694633,-73.971165
13,13K915,MS 915,718-834-6740,"105 Tech Place, Brooklyn, NY 11201",11201.0,BROOKLYN,https://www.myschools.nyc/en/schools/middle-school/13248,40.694926,-73.986015
14,14K050,J.H.S. 050 John D. Wells,718-387-4184,"183 South  3 Street, Brooklyn, NY 11211",11211.0,BROOKLYN,https://www.myschools.nyc/en/schools/middle-school/10563,40.711704,-73.960275
14,14K071,Juan Morel Campos Secondary School,718-302-7900,"215 Heyward Street, Brooklyn, NY 11206",11206.0,BROOKLYN,https://www.myschools.nyc/en/schools/middle-school/10567,40.703624,-73.953146
14,14K084,P.S. 084 Jose De Diego,718-384-8063,"250 Berry Street, Brooklyn, NY 11211",11249.0,BROOKLYN,https://www.myschools.nyc/en/schools/middle-school/10568,40.714785,-73.963
14,14K126,John Ericsson Middle School 126,718-782-2527,"424 Leonard Street, Brooklyn, NY 11222",11222.0,BROOKLYN,https://www.myschools.nyc/en/schools/middle-school/10575,40.719819,-73.948625
14,14K157,P.S./I.S. 157 The Benjamin Franklin Health & Science Academy,718-622-9285,"850 Kent Avenue, Brooklyn, NY 11205",11205.0,BROOKLYN,https://www.myschools.nyc/en/schools/middle-school/10583,40.695417,-73.959571
14,14K318,I.S. 318 Eugenio Maria De Hostos,718-782-0589,"101 Walton Street, Brooklyn, NY 11206",11206.0,BROOKLYN,https://www.myschools.nyc/en/schools/middle-school/10592,40.7025,-73.948869
14,14K577,Conselyea Preparatory School,718-486-6211,"208 North  5 Street, Brooklyn, NY 11211",11211.0,BROOKLYN,https://www.myschools.nyc/en/schools/middle-school/10607,40.715351,-73.956716
14,14K582,M.S. 582,718-456-8218,"207 Bushwick Avenue, Brooklyn, NY 11206",11206.0,BROOKLYN,https://www.myschools.nyc/en/schools/middle-school/10608,40.708723,-73.940002
14,14K586,Lyons Community School,718-782-0918,"223 Graham Avenue, Brooklyn, NY 11206",11206.0,BROOKLYN,https://www.myschools.nyc/en/schools/middle-school/10610,40.709941,-73.943641
14,14K614,Young Women's Leadership School of Brooklyn,718-387-5641,"325 Bushwick Avenue, Brooklyn, NY 11206",11206.0,BROOKLYN,https://www.myschools.nyc/en/schools/middle-school/10612,40.705204,-73.939407
15,15K051,M.S. 51 William Alexander,718-369-7603,"350 5 Avenue, Brooklyn, NY 11215",11215.0,BROOKLYN,https://www.myschools.nyc/en/schools/middle-school/10667,40.672015,-73.983947
15,15K088,J.H.S. 088 Peter Rouget,718-788-4482,"544 7Th Avenue, Brooklyn, NY 11215",11215.0,BROOKLYN,https://www.myschools.nyc/en/schools/middle-school/10670,40.660024,-73.987637
15,15K136,I.S. 136 Charles O. Dewey,718-840-1950,"4004 4 Avenue, Brooklyn, NY 11232",11232.0,BROOKLYN,https://www.myschools.nyc/en/schools/middle-school/10682,40.651977,-74.006862
15,15K442,M.S. 442 School for Innovation,718-369-4480,"500 19 Street, Brooklyn, NY 11215",11215.0,BROOKLYN,https://www.myschools.nyc/en/schools/middle-school/10701,40.656944,-73.983115
15,15K443,New Voices School of Academic & Creative Arts,718-965-0390,"330 18 Street, Brooklyn, NY 11215",11215.0,BROOKLYN,https://www.myschools.nyc/en/schools/middle-school/10702,40.660976,-73.988297
15,15K447,The Math & Science Exploratory School,718-330-9328,"345 Dean Street, Brooklyn, NY 11217",11217.0,BROOKLYN,https://www.myschools.nyc/en/schools/middle-school/10703,40.683559,-73.98027
15,15K448,Brooklyn Collaborative Studies,718-923-4700,"610 Henry Street, Brooklyn, NY 11231",11231.0,BROOKLYN,https://www.myschools.nyc/en/schools/middle-school/10705,40.68007,-74.001377
15,15K464,Park Slope Collegiate,718-832-4300,"237 7 Avenue, Brooklyn, NY 11215",11215.0,BROOKLYN,https://www.myschools.nyc/en/schools/middle-school/10709,40.669629,-73.979287
15,15K497,The Boerum Hill School for International Studies,718-330-9390,"284 Baltic Street, Brooklyn, NY 11201",11201.0,BROOKLYN,https://www.myschools.nyc/en/schools/middle-school/10711,40.685419,-73.993351
15,15K821,Sunset Park Prep,718-840-1951,"4004 4 Avenue, Brooklyn, NY 11232",11232.0,BROOKLYN,https://www.myschools.nyc/en/schools/middle-school/10721,40.651977,-74.006862
15,15K839,M.S. 839,718-686-2730,"713 Caton Avenue, Brooklyn, NY 11218",11218.0,BROOKLYN,https://www.myschools.nyc/en/schools/middle-school/10722,40.64759,-73.973362
16,16K035,M.S. 035 Stephen Decatur,718-574-2345,"272 Macdonough Street, Brooklyn, NY 11233",11233.0,BROOKLYN,https://www.myschools.nyc/en/schools/middle-school/10791,40.681896,-73.935963
16,16K057,J.H.S. 057 Whitelaw Reid Academy of Arts and Business,718-574-2357,"125 Stuyvesant Avenue, Brooklyn, NY 11221",11221.0,BROOKLYN,https://www.myschools.nyc/en/schools/middle-school/10795,40.691274,-73.933697
16,16K267,"M.S. 267 Math, Science & Technology",718-574-2318,"800 Gates Avenue, Brooklyn, NY 11221",11221.0,BROOKLYN,https://www.myschools.nyc/en/schools/middle-school/10805,40.68832,-73.932275
16,16K308,P.S. 308 Clara Cardwell,718-571-6960,"616 Quincy Street, Brooklyn, NY 11221",11221.0,BROOKLYN,https://www.myschools.nyc/en/schools/middle-school/10809,40.688695,-73.935499
16,16K681,Madiba Prep Middle School,718-574-2804,"1014 Lafayette Avenue, Brooklyn, NY 11221",11221.0,BROOKLYN,https://www.myschools.nyc/en/schools/middle-school/10822,40.692126,-73.931731
16,16K898,The Brooklyn Green School,929-397-3340,"130 Rochester Avenue, Brooklyn, NY 11213",11213.0,BROOKLYN,https://www.myschools.nyc/en/schools/middle-school/10825,40.674656,-73.927794
17,17K002,Parkside Preparatory Academy,718-462-6992,"655 Parkside Avenue, Brooklyn, NY 11226",11226.0,BROOKLYN,https://www.myschools.nyc/en/schools/middle-school/10853,40.656183,-73.951583
17,17K061,M.S. 061 Dr. Gladstone H. Atwell,718-774-1002,"400 Empire Boulevard, Brooklyn, NY 11225",11225.0,BROOKLYN,https://www.myschools.nyc/en/schools/middle-school/10858,40.664007,-73.94922
17,17K138,P.S. 138 Brooklyn,718-467-0800,"760 Prospect Place, Brooklyn, NY 11216",11216.0,BROOKLYN,https://www.myschools.nyc/en/schools/middle-school/10864,40.67438,-73.951443
17,17K181,P.S. 181 Brooklyn,718-462-5298,"1023 New York Avenue, Brooklyn, NY 11203",11203.0,BROOKLYN,https://www.myschools.nyc/en/schools/middle-school/10869,40.648215,-73.946374
17,17K189,P.S. 189 The Bilingual Center,718-756-0210,"1100 East New York Avenue, Brooklyn, NY 11212",11212.0,BROOKLYN,https://www.myschools.nyc/en/schools/middle-school/10872,40.665565,-73.926246
17,17K246,M.S. 246 Walt Whitman,718-282-5230,"72 Veronica Place, Brooklyn, NY 11226",11226.0,BROOKLYN,https://www.myschools.nyc/en/schools/middle-school/10880,40.648608,-73.952821
17,17K340,I.S. 340,718-857-5516,"227 Sterling Place, Brooklyn, NY 11238",11238.0,BROOKLYN,https://www.myschools.nyc/en/schools/middle-school/10888,40.676094,-73.97038
17,17K352,Ebbets Field Middle School,718-941-5097,"46 Mckeever Place, Brooklyn, NY 11225",11225.0,BROOKLYN,https://www.myschools.nyc/en/schools/middle-school/10889,40.665035,-73.959031
17,17K353,Elijah Stroud Middle School,718-638-3067,"750 Classon Avenue, Brooklyn, NY 11238",11238.0,BROOKLYN,https://www.myschools.nyc/en/schools/middle-school/10890,40.674406,-73.960254
17,17K354,The School of Integrated Learning,718-774-0362,"1224 Park Place, Brooklyn, NY 11213",11213.0,BROOKLYN,https://www.myschools.nyc/en/schools/middle-school/10891,40.672713,-73.936924
18,18K366,The Science And Medicine Middle School,718-688-6400,"965 East 107Th Street, Brooklyn, NY 11236",11236.0,BROOKLYN,https://www.myschools.nyc/en/schools/middle-school/11012,40.647323,-73.892022
17,17K382,Academy for College Preparation and Career Exploration: A College Board School,718-564-2566,"911 Flatbush Avenue, Brooklyn, NY 11226",11226.0,BROOKLYN,https://www.myschools.nyc/en/schools/middle-school/10895,40.649787,-73.95855
17,17K394,M.S. K394,718-756-3164,"188 Rochester Avenue, Brooklyn, NY 11213",11213.0,BROOKLYN,https://www.myschools.nyc/en/schools/middle-school/10898,40.672762,-73.927973
17,17K484,Ronald Edmonds Learning Center II,718-467-0306,"430 Howard Avenue, Brooklyn, NY 11233",11233.0,BROOKLYN,https://www.myschools.nyc/en/schools/middle-school/10905,40.673073,-73.919594
17,17K543,"Science, Technology and Research Early College High School at Erasmus",718-564-2540,"911 Flatbush Avenue, Brooklyn, NY 11226",11226.0,BROOKLYN,https://www.myschools.nyc/en/schools/middle-school/10914,40.649787,-73.95855
17,17K590,Medgar Evers College Preparatory School,718-703-5400,"1186 Carroll Street, Brooklyn, NY 11225",11225.0,BROOKLYN,https://www.myschools.nyc/en/schools/middle-school/10918,40.667195,-73.951167
17,17K722,New Heights Middle School,718-467-4501,"790 East New York Avenue, Brooklyn, NY 11203",11203.0,BROOKLYN,https://www.myschools.nyc/en/schools/middle-school/10923,40.662447,-73.936382
18,18K066,P.S. 66,718-922-3505,"845 East  96 Street, Brooklyn, NY 11236",11236.0,BROOKLYN,https://www.myschools.nyc/en/schools/middle-school/10982,40.64883,-73.907774
18,18K068,I.S. 068 Isaac Bildersee,718-241-4800,"956 East  82 Street, Brooklyn, NY 11236",11236.0,BROOKLYN,https://www.myschools.nyc/en/schools/middle-school/10983,40.635553,-73.91079
18,18K211,I.S. 211 John Wilson,718-251-4411,"1001 East 100 Street, Brooklyn, NY 11236",11236.0,BROOKLYN,https://www.myschools.nyc/en/schools/middle-school/10993,40.643278,-73.896212
18,18K235,The Lenox Academy,718-773-4869,"525 Lenox Road, Brooklyn, NY 11203",11203.0,BROOKLYN,https://www.myschools.nyc/en/schools/middle-school/10998,40.654704,-73.941089
18,18K285,I.S. 285 Meyer Levin,718-451-2200,"5909 Beverly Road, Brooklyn, NY 11203",11203.0,BROOKLYN,https://www.myschools.nyc/en/schools/middle-school/11011,40.646877,-73.920977
18,18K581,East Flatbush Community Research School,718-773-3059,"905 Winthrop Street, Brooklyn, NY 11203",11203.0,BROOKLYN,https://www.myschools.nyc/en/schools/middle-school/11018,40.65843,-73.929076
18,18K588,Middle School for Art and Philosophy,718-342-7563,"1084 Lenox Road, Brooklyn, NY 11212",11212.0,BROOKLYN,https://www.myschools.nyc/en/schools/middle-school/11019,40.658295,-73.920109
18,18K763,Brooklyn Science and Engineering Academy,718-240-3790,"5404 Tilden Avenue, Brooklyn, NY 11203",11203.0,BROOKLYN,https://www.myschools.nyc/en/schools/middle-school/11025,40.648423,-73.925948
19,19K089,P.S. 089 Cypress Hills,718-964-1180,"265 Warwick Street, Brooklyn, NY 11207",11207.0,BROOKLYN,https://www.myschools.nyc/en/schools/middle-school/11062,40.677697,-73.886936
19,19K760,Highland Park Community School,718-235-1785,"528 Ridgewood Avenue, Brooklyn, NY 11208",11208.0,BROOKLYN,https://www.myschools.nyc/en/schools/middle-school/11144,40.68618,-73.869625
19,19K171,I.S. 171 Abraham Lincoln,718-647-0111,"528 Ridgewood Avenue, Brooklyn, NY 11208",11208.0,BROOKLYN,https://www.myschools.nyc/en/schools/middle-school/11077,40.68618,-73.869625
19,19K218,J.H.S. 218 James P. Sinnott,718-647-9050,"370 Fountain Avenue, Brooklyn, NY 11208",11208.0,BROOKLYN,https://www.myschools.nyc/en/schools/middle-school/11090,40.670724,-73.874208
19,19K292,J.H.S. 292 Margaret S. Douglas,718-498-6562,"301 Vermont Street, Brooklyn, NY 11207",11207.0,BROOKLYN,https://www.myschools.nyc/en/schools/middle-school/11098,40.671987,-73.893896
19,19K364,I.S. 364 Gateway,718-642-3007,"1426 Freeport Loop, Brooklyn, NY 11239",11239.0,BROOKLYN,https://www.myschools.nyc/en/schools/middle-school/11114,40.645806,-73.881671
19,19K404,Academy for Young Writers,718-688-7230,"1065 Elton Street, Brooklyn, NY 11208",11239.0,BROOKLYN,https://www.myschools.nyc/en/schools/middle-school/11116,40.657434,-73.874734
19,19K409,East New York Family Academy,718-498-5240,"145 Pennsylvania Avenue, Brooklyn, NY 11207",11207.0,BROOKLYN,https://www.myschools.nyc/en/schools/middle-school/11118,40.674135,-73.89643
19,19K422,Spring Creek Community School,718-688-7200,"1065 Elton Street, Brooklyn, NY 11208",11239.0,BROOKLYN,https://www.myschools.nyc/en/schools/middle-school/11120,40.657434,-73.874734
19,19K452,Frederick Douglass Academy VIII Middle School,718-348-2465,"1400 Pennsylvania Avenue, Brooklyn, NY 11239",11239.0,BROOKLYN,https://www.myschools.nyc/en/schools/middle-school/11121,40.64726,-73.881114
19,19K654,Van Siclen Community Middle School,7189274701,"800 Van Siclen Ave, Brooklyn, NY 11207",11207.0,BROOKLYN,https://www.myschools.nyc/en/schools/middle-school/11133,40.66011,-73.885387
20,20K163,P.S. 163 Bath Beach,718-236-9003,"109 Bay 14Th Street, Brooklyn, NY 11214",11214.0,BROOKLYN,https://www.myschools.nyc/en/schools/middle-school/11218,40.606792,-74.00806
19,19K661,Vista Academy,718-647-0913,"350 Linwood Street, Brooklyn, NY 11208",11208.0,BROOKLYN,https://www.myschools.nyc/en/schools/middle-school/11136,40.677104,-73.883433
19,19K662,Liberty Avenue Middle School,718-647-1301,"350 Linwood Street, Brooklyn, NY 11208",11208.0,BROOKLYN,https://www.myschools.nyc/en/schools/middle-school/11137,40.677104,-73.883433
19,19K663,School of the Future Brooklyn,718-345-5190,"574 Dumont Avenue, Brooklyn, NY 11207",11207.0,BROOKLYN,https://www.myschools.nyc/en/schools/middle-school/11138,40.665798,-73.897723
19,19K678,East New York Middle School of Excellence,718-257-4061,"605 Shepherd Avenue, Brooklyn, NY 11208",11208.0,BROOKLYN,https://www.myschools.nyc/en/schools/middle-school/11142,40.669387,-73.879614
19,19K907,Legacy School of the Arts,929-397-2967,"590 Sheffield Avenue, Brooklyn, NY 11207",11207.0,BROOKLYN,https://www.myschools.nyc/en/schools/middle-school/11146,40.662326,-73.894441
19,19K935,M.S. 935,929-397-2938,"3269 Atlanntic Avenue, Brooklyn, NY 11218",,,https://www.myschools.nyc/en/schools/middle-school/13249,,
20,20K030,P.S./I.S. 30 Mary White Ovington,718-491-8440,"7002 4Th Avenue, Brooklyn, NY 11209",11209.0,BROOKLYN,https://www.myschools.nyc/en/schools/middle-school/11202,40.63359,-74.023948
20,20K062,J.H.S. 062 Ditmas,718-941-5450,"700 Cortelyou Road, Brooklyn, NY 11218",11218.0,BROOKLYN,https://www.myschools.nyc/en/schools/middle-school/11206,40.638686,-73.971651
20,20K104,P.S./I.S. 104 The Fort Hamilton School,718-836-4630,"9115 5 Avenue, Brooklyn, NY 11209",11209.0,BROOKLYN,https://www.myschools.nyc/en/schools/middle-school/11210,40.618415,-74.028842
20,20K180,The SEEALL Academy,7188518070,"5601 16 Avenue, Brooklyn, NY 11204",11204.0,BROOKLYN,https://www.myschools.nyc/en/schools/middle-school/11227,40.627029,-73.989672
20,20K187,The Christa McAuliffe School\I.S. 187,718-236-3394,"1171 65 Street, Brooklyn, NY 11219",11219.0,BROOKLYN,https://www.myschools.nyc/en/schools/middle-school/11232,40.627784,-74.004485
20,20K192,P.S. 192 - The Magnet School for Math and Science Inquiry,718-633-3061,"4715 18 Avenue, Brooklyn, NY 11204",11204.0,BROOKLYN,https://www.myschools.nyc/en/schools/middle-school/11233,40.629303,-73.979995
20,20K201,J.H.S. 201 The Dyker Heights,718-833-9363,"8010 12 Avenue, Brooklyn, NY 11228",11228.0,BROOKLYN,https://www.myschools.nyc/en/schools/middle-school/11239,40.618676,-74.012722
21,21K238,P.S. 238 Anne Sullivan,718-339-4355,"1633 East  8 Street, Brooklyn, NY 11223",11223.0,BROOKLYN,https://www.myschools.nyc/en/schools/middle-school/11399,40.608862,-73.965058
20,20K220,J.H.S. 220 John J. Pershing,718-633-8200,"4812 9Th Avenue, Brooklyn, NY 11220",11220.0,BROOKLYN,https://www.myschools.nyc/en/schools/middle-school/11246,40.640545,-74.000731
20,20K223,J.H.S. 223 The Montauk,718-438-0155,"4200 16 Avenue, Brooklyn, NY 11204",11204.0,BROOKLYN,https://www.myschools.nyc/en/schools/middle-school/11247,40.634875,-73.981528
20,20K227,J.H.S. 227 Edward B. Shallow,718-256-8218,"6500 16 Avenue, Brooklyn, NY 11204",11204.0,BROOKLYN,https://www.myschools.nyc/en/schools/middle-school/11248,40.62191,-73.995022
20,20K229,P.S. 229 Dyker,718-236-5447,"1400 Benson Avenue, Brooklyn, NY 11228",11228.0,BROOKLYN,https://www.myschools.nyc/en/schools/middle-school/11252,40.610963,-74.013376
23,23K184,P.S. 184 Newport,718-495-7776,"273 Newport Street, Brooklyn, NY 11212",11212.0,BROOKLYN,https://www.myschools.nyc/en/schools/middle-school/11642,40.659966,-73.904901
20,20K259,J.H.S. 259 William Mckinley,718-833-1000,"7305 Ft Hamilton Parkway, Brooklyn, NY 11228",11228.0,BROOKLYN,https://www.myschools.nyc/en/schools/middle-school/11254,40.62668,-74.01512
20,20K609,Urban Assembly School for Criminal Justice,718-438-3893,"4200 16 Avenue, Brooklyn, NY 11204",11204.0,BROOKLYN,https://www.myschools.nyc/en/schools/middle-school/11264,40.634875,-73.981528
20,20K686,Brooklyn School of Inquiry,718-621-5730,"50 Avenue P, Brooklyn, NY 11204",11204.0,BROOKLYN,https://www.myschools.nyc/en/schools/middle-school/11266,40.60731,-73.986595
20,20K936,M.S. 936,718 - 759 - 4908,"270 58th Street, Brooklyn, NY 11220",11220.0,BROOKLYN,https://www.myschools.nyc/en/schools/middle-school/13250,40.643763,-74.020215
21,21K095,P.S. 095 The Gravesend,718-449-5050,"345 Van Sicklen Street, Brooklyn, NY 11223",11223.0,BROOKLYN,https://www.myschools.nyc/en/schools/middle-school/11357,40.595698,-73.97518
21,21K096,I.S. 096 Seth Low,718-236-1344,"99 Avenue P, Brooklyn, NY 11204",11204.0,BROOKLYN,https://www.myschools.nyc/en/schools/middle-school/11361,40.60754,-73.984661
21,21K098,I.S. 98 Bay Academy,718-891-9005,"1401 Emmons Avenue, Brooklyn, NY 11235",11235.0,BROOKLYN,https://www.myschools.nyc/en/schools/middle-school/11363,40.583125,-73.954037
21,21K099,P.S. 099 Isaac Asimov,718-338-9201,"1120 East  10 Street, Brooklyn, NY 11230",11230.0,BROOKLYN,https://www.myschools.nyc/en/schools/middle-school/11364,40.621565,-73.965595
21,21K121,P.S. 121 Nelson A. Rockefeller,718-377-8845,"5301 20 Avenue, Brooklyn, NY 11204",11204.0,BROOKLYN,https://www.myschools.nyc/en/schools/middle-school/11371,40.623273,-73.978822
21,21K209,P.S. 209 Margaret Mead,718-743-1954,"2609 East  7 Street, Brooklyn, NY 11235",11235.0,BROOKLYN,https://www.myschools.nyc/en/schools/middle-school/11382,40.586845,-73.96198
21,21K225,P.S. K225 - The Eileen E. Zaglin,718-743-9793,"1075 Ocean View Avenue, Brooklyn, NY 11235",11235.0,BROOKLYN,https://www.myschools.nyc/en/schools/middle-school/11393,40.579737,-73.956329
21,21K226,P.S. 226 Alfred De B. Mason,718-234-4940,"6006 23 Avenue, Brooklyn, NY 11204",11204.0,BROOKLYN,https://www.myschools.nyc/en/schools/middle-school/11397,40.615252,-73.97635
21,21K228,I.S. 228 David A. Boody,718-375-7635,"228 Avenue S, Brooklyn, NY 11223",11223.0,BROOKLYN,https://www.myschools.nyc/en/schools/middle-school/11398,40.6013,-73.976953
24,24Q005,I.S. 5 - The Walter Crowley Intermediate School,718-205-6788,"50-40 Jacobus Street, Queens, NY 11373",11373.0,QUEENS,https://www.myschools.nyc/en/schools/middle-school/11704,40.737718,-73.887429
21,21K239,Mark Twain I.S. 239 for the Gifted & Talented,718-266-0814,"2401 Neptune Avenue, Brooklyn, NY 11224",11224.0,BROOKLYN,https://www.myschools.nyc/en/schools/middle-school/11402,40.578188,-73.99203
21,21K281,I.S. 281 Joseph B Cavallaro,718-996-6706,"8787 24 Avenue, Brooklyn, NY 11214",11214.0,BROOKLYN,https://www.myschools.nyc/en/schools/middle-school/11405,40.595341,-73.993457
21,21K288,P.S. 288 The Shirley Tanyhill,718-382-2100,"2950 West  25 Street, Brooklyn, NY 11224",11224.0,BROOKLYN,https://www.myschools.nyc/en/schools/middle-school/11406,40.574411,-73.99194
21,21K303,I.S. 303 Herbert S. Eisenberg,718-996-0100,"501 West Avenue, Brooklyn, NY 11224",11224.0,BROOKLYN,https://www.myschools.nyc/en/schools/middle-school/11409,40.5825,-73.973122
21,21K468,Kingsborough Early College School,718-333-7850,"2630 Benson Avenue, Brooklyn, NY 11214",11214.0,BROOKLYN,https://www.myschools.nyc/en/schools/middle-school/11417,40.594291,-73.98577
21,21K690,Brooklyn Studio Secondary School,718-266-5032,"8310 21St Avenue, Brooklyn, NY 11214",11214.0,BROOKLYN,https://www.myschools.nyc/en/schools/middle-school/11424,40.604879,-73.994404
22,22K014,J.H.S. 014 Shell Bank,718-743-0220,"2424 Batchelder Street, Brooklyn, NY 11235",11235.0,BROOKLYN,https://www.myschools.nyc/en/schools/middle-school/11493,40.593521,-73.937672
22,22K078,J.H.S. 078 Roy H. Mann,(718( 763-4701,"1420 East  68 Street, Brooklyn, NY 11234",11234.0,BROOKLYN,https://www.myschools.nyc/en/schools/middle-school/11497,40.621224,-73.91287
22,22K109,P.S. 109,718-693-3426,"1001 East  45 Street, Brooklyn, NY 11203",11203.0,BROOKLYN,https://www.myschools.nyc/en/schools/middle-school/11500,40.636455,-73.933582
22,22K206,P.S. 206 Joseph F Lamb,718-743-5598,"2200 Gravesend Neck Road, Brooklyn, NY 11229",11229.0,BROOKLYN,https://www.myschools.nyc/en/schools/middle-school/11523,40.597369,-73.948946
22,22K207,P.S. 207 Elizabeth G. Leary,718-645-8667,"4011 Fillmore Avenue, Brooklyn, NY 11234",11234.0,BROOKLYN,https://www.myschools.nyc/en/schools/middle-school/11525,40.613353,-73.930129
22,22K234,W.A. Cunningham I.S. 234,718-645-1334,"1875 East  17 Street, Brooklyn, NY 11229",11229.0,BROOKLYN,https://www.myschools.nyc/en/schools/middle-school/11531,40.60422,-73.955485
22,22K240,Andries Hudde,718-253-3700,"2500 Nostrand Avenue, Brooklyn, NY 11210",11210.0,BROOKLYN,https://www.myschools.nyc/en/schools/middle-school/11535,40.623561,-73.946279
22,22K278,J.H.S. 278 Marine Park,718-375-3523,"1925 Stuart Street, Brooklyn, NY 11229",11229.0,BROOKLYN,https://www.myschools.nyc/en/schools/middle-school/11544,40.60665,-73.939176
22,22K381,I. S. 381,718-338-1534,"2500 Nostrand Avenue, Brooklyn, NY 11210",11210.0,BROOKLYN,https://www.myschools.nyc/en/schools/middle-school/11553,40.623561,-73.946279
22,22K890,M.S. 890,929-397-9200,"21 Hinckley Place, Brooklyn, NY 11218",11218.0,BROOKLYN,https://www.myschools.nyc/en/schools/middle-school/11562,40.644469,-73.971032
23,23K041,P.S. 041 Francis White,718-495-7732,"411 Thatford Avenue, Brooklyn, NY 11212",11212.0,BROOKLYN,https://www.myschools.nyc/en/schools/middle-school/11621,40.660306,-73.907355
23,23K155,P.S./ I.S. 155 Nicholas Herkimer,718-240-4340,"1355 Herkimer Street, Brooklyn, NY 11233",11233.0,BROOKLYN,https://www.myschools.nyc/en/schools/middle-school/11629,40.677415,-73.908734
23,23K178,P.S. 178 Saint Clair Mckelway,718-495-7768,"2163 Dean Street, Brooklyn, NY 11233",11233.0,BROOKLYN,https://www.myschools.nyc/en/schools/middle-school/11638,40.675024,-73.915778
23,23K323,P.S./I.S. 323,718-495-7781,"210 Chester Street, Brooklyn, NY 11212",11212.0,BROOKLYN,https://www.myschools.nyc/en/schools/middle-school/11651,40.666545,-73.910904
23,23K363,Brownsville Collaborative Middle School,718-495-1202,"85 Watkins Street, Brooklyn, NY 11212",11212.0,BROOKLYN,https://www.myschools.nyc/en/schools/middle-school/11658,40.670986,-73.908194
23,23K392,I.S. 392,718-498-2491,"104 Sutter Avenue, Brooklyn, NY 11212",11212.0,BROOKLYN,https://www.myschools.nyc/en/schools/middle-school/11659,40.665965,-73.918107
23,23K518,Kappa V,718-922-4690,"985 Rockaway Avenue, Brooklyn, NY 11212",11212.0,BROOKLYN,https://www.myschools.nyc/en/schools/middle-school/11668,40.656068,-73.907245
23,23K522,Mott Hall IV,718-485-5240,"1137 Herkimer Street, Brooklyn, NY 11233",11233.0,BROOKLYN,https://www.myschools.nyc/en/schools/middle-school/11669,40.677805,-73.915843
23,23K644,Eagle Academy for Young Men II,718-495-0863,"1137 Herkimer Street, Brooklyn, NY 11233",11233.0,BROOKLYN,https://www.myschools.nyc/en/schools/middle-school/11674,40.677805,-73.915843
23,23K664,Brooklyn Environmental Exploration School,718-453-3039,"251 Mac Dougal Street, Brooklyn, NY 11233",11233.0,BROOKLYN,https://www.myschools.nyc/en/schools/middle-school/11676,40.680318,-73.910644
23,23K668,Riverdale Avenue Middle School,718-346-0764,"76 Riverdale Avenue, Brooklyn, NY 11212",11212.0,BROOKLYN,https://www.myschools.nyc/en/schools/middle-school/11677,40.660204,-73.913933
23,23K671,Mott Hall Bridges Academy,718-345-6912,"210 Chester Street, Brooklyn, NY 11212",11212.0,BROOKLYN,https://www.myschools.nyc/en/schools/middle-school/11678,40.666545,-73.910904
24,24Q049,P.S. 049 Dorothy Bonawit Kole,718-326-2111,"63-60 80Th Street, Queens, NY 11379",11379.0,QUEENS,https://www.myschools.nyc/en/schools/middle-school/11716,40.719867,-73.875093
24,24Q061,I.S. 061 Leonardo Da Vinci,718-760-3233,"98-50 50 Avenue, Queens, NY 11368",11368.0,QUEENS,https://www.myschools.nyc/en/schools/middle-school/11721,40.742668,-73.863307
24,24Q073,I.S. 73 - The Frank Sansivieri Intermediate School,718-639-3817,"70-02 54 Avenue, Queens, NY 11378",11378.0,QUEENS,https://www.myschools.nyc/en/schools/middle-school/11726,40.729215,-73.893624
24,24Q077,I.S. 077,718-366-7120,"976 Seneca Avenue, Queens, NY 11385",11385.0,QUEENS,https://www.myschools.nyc/en/schools/middle-school/11727,40.699516,-73.90214
25,25Q237,I.S. 237,718-353-6464,"46-21 Colden Street, Queens, NY 11355",11355.0,QUEENS,https://www.myschools.nyc/en/schools/middle-school/11918,40.749545,-73.822073
24,24Q087,P.S./I.S. 087 Middle Village,718-326-8243,"67-54 80 Street, Queens, NY 11379",11379.0,QUEENS,https://www.myschools.nyc/en/schools/middle-school/11730,40.711815,-73.871238
24,24Q093,I.S. 093 Ridgewood,718-821-4882,"66-56 Forest Avenue, Queens, NY 11385",11385.0,QUEENS,https://www.myschools.nyc/en/schools/middle-school/11738,40.706041,-73.902584
24,24Q102,P.S. 102 Bayview,718-446-3308,"55-24 Van Horn Street, Queens, NY 11373",11373.0,QUEENS,https://www.myschools.nyc/en/schools/middle-school/11741,40.733514,-73.877857
24,24Q113,P.S./I.S. 113 Anthony J. Pranzo,718-847-0724,"78-23 87Th Street, Queens, NY 11385",11385.0,QUEENS,https://www.myschools.nyc/en/schools/middle-school/11743,40.705516,-73.862208
25,25Q025,I.S. 025 Adrien Block,718-961-3480,"34-65 192 Street, Queens, NY 11358",11358.0,QUEENS,https://www.myschools.nyc/en/schools/middle-school/11870,40.765133,-73.790083
24,24Q119,I.S. 119 The Glendale,718-326-8261,"74-01 78 Avenue, Queens, NY 11385",11385.0,QUEENS,https://www.myschools.nyc/en/schools/middle-school/11748,40.704406,-73.875183
24,24Q125,I.S. 125 Thom J. McCann Woodside,718-937-0320,"46-02 47 Avenue, Queens, NY 11377",11377.0,QUEENS,https://www.myschools.nyc/en/schools/middle-school/11749,40.741131,-73.918945
24,24Q128,"P.S. 128 The Lorraine Tuzzo, Juniper Valley Elementary School",718-326-6210,"69-10 65Th Drive, Queens, NY 11379",11379.0,QUEENS,https://www.myschools.nyc/en/schools/middle-school/11750,40.715344,-73.886215
24,24Q311,Corona Arts & Sciences Academy,718-507-3820,"98-11 44Th Avenue, Queens, NY 11368",11368.0,QUEENS,https://www.myschools.nyc/en/schools/middle-school/11778,40.745709,-73.865329
24,24Q560,"Robert F. Wagner, Jr. Secondary School for Arts and Technology",718-472-5671,"47-07 30Th Place, Queens, NY 11101",11101.0,QUEENS,https://www.myschools.nyc/en/schools/middle-school/11788,40.742839,-73.936782
25,25Q185,J.H.S. 185 Edward Bleeker,718-445-3232,"147-26 25 Drive, Queens, NY 11354",11354.0,QUEENS,https://www.myschools.nyc/en/schools/middle-school/11900,40.775253,-73.819347
25,25Q189,J.H.S. 189 Daniel Carter Beard,718-359-6676,"144-80 Barclay Avenue, Queens, NY 11355",11355.0,QUEENS,https://www.myschools.nyc/en/schools/middle-school/11901,40.759844,-73.820548
25,25Q194,J.H.S. 194 William Carr,718-746-0818,"154-60 17 Avenue, Queens, NY 11357",11357.0,QUEENS,https://www.myschools.nyc/en/schools/middle-school/11904,40.78365,-73.807838
25,25Q200,P.S./M.S. 200 - The Magnet School of Global Studies and Leadership,718-969-7780,"70-10 164 Street, Queens, NY 11365",11365.0,QUEENS,https://www.myschools.nyc/en/schools/middle-school/11907,40.731369,-73.805116
25,25Q219,P.S. 219 Paul Klapper,718-793-2130,"144-39 Gravett Road, Queens, NY 11367",11367.0,QUEENS,https://www.myschools.nyc/en/schools/middle-school/11917,40.735275,-73.823778
25,25Q250,I.S. 250 The Robert F. Kennedy Community Middle School,718-591-9000,"158-40 76 Road, Queens, NY 11366",11366.0,QUEENS,https://www.myschools.nyc/en/schools/middle-school/11925,40.724458,-73.810216
25,25Q252,The Queens School of Inquiry,718-380-6929,"158-40 76 Road, Queens, NY 11366",11366.0,QUEENS,https://www.myschools.nyc/en/schools/middle-school/11927,40.724458,-73.810216
25,25Q281,East-West School of International Studies,718-353-0009,"46-21 Colden Street, Queens, NY 11355",11355.0,QUEENS,https://www.myschools.nyc/en/schools/middle-school/11930,40.749545,-73.822073
25,25Q285,World Journalism Preparatory: A College Board School,718-461-2219,"34-65 192 Street, Queens, NY 11358",11358.0,QUEENS,https://www.myschools.nyc/en/schools/middle-school/11932,40.765133,-73.790083
25,25Q294,BELL Academy,718-428-0587,"18-25 212 Street, Queens, NY 11360",11360.0,QUEENS,https://www.myschools.nyc/en/schools/middle-school/11933,40.782298,-73.779099
25,25Q379,College Point Collaborative,929-362-3300,"12406 14Th Avenue, Queens, NY 11356",11356.0,QUEENS,https://www.myschools.nyc/en/schools/middle-school/11934,40.785327,-73.843749
25,25Q499,"The Queens College School for Math, Science and Technology",718-461-7462,"148-20 Reeves Avenue, Queens, NY 11367",11367.0,QUEENS,https://www.myschools.nyc/en/schools/middle-school/11937,40.739246,-73.822057
26,26Q067,J.H.S. 067 Louis Pasteur,718-423-8138,"51-60 Marathon Parkway, Queens, NY 11362",11362.0,QUEENS,https://www.myschools.nyc/en/schools/middle-school/12006,40.762708,-73.733694
26,26Q074,J.H.S. 074 Nathaniel Hawthorne,718-631-6800,"61-15 Oceania Street, Queens, NY 11364",11364.0,QUEENS,https://www.myschools.nyc/en/schools/middle-school/12007,40.745201,-73.767446
26,26Q266,P.S./I.S. 266,718-479-3920,"74-10 Commonwealth Boulevard, Queens, NY 11426",11426.0,QUEENS,https://www.myschools.nyc/en/schools/middle-school/12048,40.746231,-73.727614
26,26Q158,M.S. 158 Marie Curie,718-423-8100,"46-35 Oceania Street, Queens, NY 11361",11361.0,QUEENS,https://www.myschools.nyc/en/schools/middle-school/12018,40.756139,-73.772862
26,26Q172,Irwin Altman Middle School 172,718-831-4000,"81-14 257 Street, Queens, NY 11004",11004.0,QUEENS,https://www.myschools.nyc/en/schools/middle-school/12023,40.741944,-73.712965
26,26Q178,P.S./ IS 178 Holliswood,718-464-5763,"189-10 Radnor Road, Queens, NY 11423",11423.0,QUEENS,https://www.myschools.nyc/en/schools/middle-school/12026,40.724479,-73.777454
26,26Q216,J.H.S. 216 George J. Ryan,718-358-2005,"64-20 175 Street, Queens, NY 11365",11365.0,QUEENS,https://www.myschools.nyc/en/schools/middle-school/12043,40.737517,-73.794031
27,27Q042,P.S./M.S 042 R. Vernam,718-634-7914,"488 Beach  66 Street, Queens, NY 11692",11692.0,QUEENS,https://www.myschools.nyc/en/schools/middle-school/12092,40.594538,-73.795304
27,27Q043,P.S. 043,718-327-5860,"160 Beach  29 Street, Queens, NY 11691",11691.0,QUEENS,https://www.myschools.nyc/en/schools/middle-school/12099,40.593834,-73.76174
27,27Q047,P.S. 047 Chris Galas,718-634-7167,"9 Power Road, Queens, NY 11693",11693.0,QUEENS,https://www.myschools.nyc/en/schools/middle-school/12103,40.606353,-73.820445
27,27Q053,M.S. 053 Brian Piccolo,718-471-6900,"10-45 Nameoke Street, Queens, NY 11691",11691.0,QUEENS,https://www.myschools.nyc/en/schools/middle-school/12109,40.603622,-73.749097
27,27Q105,P.S. 105 The Bay School,718-474-8615,"420 Beach  51 Street, Queens, NY 11691",11691.0,QUEENS,https://www.myschools.nyc/en/schools/middle-school/12137,40.595779,-73.781876
27,27Q114,P.S./M.S. 114 Belle Harbor,718-634-3382,"134-01 Cronston Avenue, Queens, NY 11694",11694.0,QUEENS,https://www.myschools.nyc/en/schools/middle-school/12147,40.578261,-73.854403
27,27Q207,P.S. 207 Rockwood Park,718-848-2700,"159-15 88 Street, Queens, NY 11414",11414.0,QUEENS,https://www.myschools.nyc/en/schools/middle-school/12171,40.658089,-73.844432
27,27Q124,P.S. 124 Osmond A Church,718-529-2580,"129-15 150 Avenue, Queens, NY 11420",11420.0,QUEENS,https://www.myschools.nyc/en/schools/middle-school/12153,40.665058,-73.811701
27,27Q137,M.S. 137 America's School of Heroes,718-659-0471,"109-15 98 Street, Queens, NY 11417",11417.0,QUEENS,https://www.myschools.nyc/en/schools/middle-school/12155,40.6781,-73.839948
27,27Q146,P.S. 146 Howard Beach,718-659-3140,"98-01 159 Avenue, Queens, NY 11414",11414.0,QUEENS,https://www.myschools.nyc/en/schools/middle-school/12159,40.659873,-73.835068
27,27Q183,P.S. 183 Dr. Richard R. Green,718-634-9459,"2-45 Beach  79 Street, Queens, NY 11693",11693.0,QUEENS,https://www.myschools.nyc/en/schools/middle-school/12163,40.589508,-73.805361
27,27Q202,J.H.S. 202 Robert H. Goddard,718-848-0001,"138-30 Lafayette Street, Queens, NY 11417",11417.0,QUEENS,https://www.myschools.nyc/en/schools/middle-school/12170,40.67124,-73.845141
27,27Q210,J.H.S. 210 Elizabeth Blackwell,718-845-5942,"93-11 101 Avenue, Queens, NY 11416",11416.0,QUEENS,https://www.myschools.nyc/en/schools/middle-school/12175,40.683858,-73.84747
27,27Q226,J.H.S. 226 Virgil I. Grissom,718-843-2260,"121-10 Rockaway Boulevard, Queens, NY 11420",11420.0,QUEENS,https://www.myschools.nyc/en/schools/middle-school/12179,40.675771,-73.816938
27,27Q232,P.S. 232 Lindenwood,718-848-9247,"153-23 83 Street, Queens, NY 11414",11414.0,QUEENS,https://www.myschools.nyc/en/schools/middle-school/12180,40.665909,-73.851216
27,27Q262,Channel View School for Research,718-634-1970,"100-00 Beach Channel Drive, Queens, NY 11694",11694.0,QUEENS,https://www.myschools.nyc/en/schools/middle-school/12192,40.586066,-73.822624
27,27Q282,Knowledge and Power Preparatory Academy VI,718-471-6934,"8-21 Bay 25 Street, Queens, NY 11691",11691.0,QUEENS,https://www.myschools.nyc/en/schools/middle-school/12195,40.60201,-73.762795
27,27Q309,Academy of Medical Technology: A College Board School,718-471-3571,"8-21 Bay 25 Street, Queens, NY 11691",11691.0,QUEENS,https://www.myschools.nyc/en/schools/middle-school/12202,40.60201,-73.762795
27,27Q318,Waterside School For Leadership,718-634-1128,"190 Beach 110 Street, Rockaway Park, NY 11694",11694.0,QUEENS,https://www.myschools.nyc/en/schools/middle-school/12209,40.580928,-73.831836
27,27Q319,Village Academy,718-471-6042,"10-45 Nameoke Street, Queens, NY 11691",11691.0,QUEENS,https://www.myschools.nyc/en/schools/middle-school/12210,40.603622,-73.749097
27,27Q323,Scholars' Academy,718-474-6918,"320 Beach 104Th Street, Queens, NY 11694",11694.0,QUEENS,https://www.myschools.nyc/en/schools/middle-school/12212,40.584109,-73.825711
27,27Q333,Goldie Maple Academy,718-945-3300,"3-65 Beach 56 Street, Queens, NY 11692",11692.0,QUEENS,https://www.myschools.nyc/en/schools/middle-school/12214,40.593967,-73.786182
28,28Q008,J.H.S. 008 Richard S. Grossley,718-739-6883,"108-35 167 Street, Queens, NY 11433",11433.0,QUEENS,https://www.myschools.nyc/en/schools/middle-school/12294,40.69719,-73.787192
28,28Q072,Catherine & Count Basie Middle School 72,718-723-6200,"133-25 Guy R Brewer Boulevard, Queens, NY 11434",11434.0,QUEENS,https://www.myschools.nyc/en/schools/middle-school/12304,40.673769,-73.775951
28,28Q157,J.H.S. 157 Stephen A. Halsey,718-830-4910,"63-55 102Nd Street, Queens, NY 11374",11374.0,QUEENS,https://www.myschools.nyc/en/schools/middle-school/12326,40.732289,-73.853825
28,28Q167,Metropolitan Expeditionary Learning School,718-286-3500,"91-30 Metropolitan Avenue, Queens, NY 11375",11375.0,QUEENS,https://www.myschools.nyc/en/schools/middle-school/12331,40.711367,-73.856698
28,28Q310,Queens Collegiate: A College Board School,718-658-4016,"167-01 Gothic Drive, Jamaica, NY 11432",11432.0,QUEENS,https://www.myschools.nyc/en/schools/middle-school/12355,40.713218,-73.797237
28,28Q190,J.H.S. 190 Russell Sage,718-830-4970,"68-17 Austin Street, Queens, NY 11375",11375.0,QUEENS,https://www.myschools.nyc/en/schools/middle-school/12340,40.722707,-73.851699
28,28Q217,J.H.S. 217 Robert A. Van Wyck,718-657-1120,"85-05 144 Street, Queens, NY 11435",11435.0,QUEENS,https://www.myschools.nyc/en/schools/middle-school/12345,40.710024,-73.812508
28,28Q284,York Early College Academy,718-262-8547,"108-35 167 Street, Queens, NY 11433",11433.0,QUEENS,https://www.myschools.nyc/en/schools/middle-school/12350,40.69719,-73.787192
28,28Q287,The Emerson School,718-657-4801,"108-35 167 Street, Queens, NY 11433",11433.0,QUEENS,https://www.myschools.nyc/en/schools/middle-school/12351,40.69719,-73.787192
28,28Q332,Redwood Middle School,718-276-4540,"133-25 Guy R Brewer Boulevard, Queens, NY 11434",11434.0,QUEENS,https://www.myschools.nyc/en/schools/middle-school/12359,40.673769,-73.775951
28,28Q358,M.S. 358,718-558-6240,"88-08 164Th Street, Queens, NY 11432",11432.0,QUEENS,https://www.myschools.nyc/en/schools/middle-school/12365,40.70869,-73.79798
28,28Q680,Queens Gateway to Health Sciences Secondary School,718-969-3155,"160-20 Goethals Avenue, Queens, NY 11432",11432.0,QUEENS,https://www.myschools.nyc/en/schools/middle-school/12370,40.718831,-73.806499
28,28Q896,"Young Women's Leadership School, Queens",718-725-0402,"150-91 87 Road, Queens, NY 11432",11432.0,QUEENS,https://www.myschools.nyc/en/schools/middle-school/12374,40.707527,-73.806412
29,29Q059,I.S. 059 Springfield Gardens,718-527-3501,"132-55 Ridgedale Street, Queens, NY 11413",11413.0,QUEENS,https://www.myschools.nyc/en/schools/middle-school/12466,40.68173,-73.753429
29,29Q109,Jean Nuzzi Intermediate School,718-465-0651,"213-10 92 Avenue, Queens, NY 11428",11428.0,QUEENS,https://www.myschools.nyc/en/schools/middle-school/12468,40.720713,-73.747001
29,29Q116,P.S./I.S. 116 William C. Hughley,718-526-4884,"107-25 Wren Place, Queens, NY 11433",11433.0,QUEENS,https://www.myschools.nyc/en/schools/middle-school/12469,40.700606,-73.782302
29,29Q138,P.S./M.S. 138 Sunrise,929-600-5777,"251-11 Weller Avenue, Queens, NY 11422",11422.0,QUEENS,https://www.myschools.nyc/en/schools/middle-school/12483,40.659728,-73.735176
29,29Q147,P.S./M.S. 147 Ronald McNair,718-528-2420,"218-01 116 Avenue, Queens, NY 11411",11411.0,QUEENS,https://www.myschools.nyc/en/schools/middle-school/12488,40.697309,-73.740948
29,29Q192,I.S. 192 The Linden,718-479-5540,"109-89 204 Street, Queens, NY 11412",11412.0,QUEENS,https://www.myschools.nyc/en/schools/middle-school/12496,40.70646,-73.753579
29,29Q208,P.S./I.S. 208,718-468-6420,"74-30 Commonwealth Blvd, Queens, NY 11426",11426.0,QUEENS,https://www.myschools.nyc/en/schools/middle-school/12499,40.745948,-73.727456
29,29Q238,I.S. 238 - Susan B. Anthony Academy,718-297-9821,"88-15 182 Street, Queens, NY 11423",11423.0,QUEENS,https://www.myschools.nyc/en/schools/middle-school/12501,40.713094,-73.780468
29,29Q259,Pathways College Preparatory School: A College Board School,718-454-4957,"109-89 204 Street, Queens, NY 11412",11412.0,QUEENS,https://www.myschools.nyc/en/schools/middle-school/12507,40.70646,-73.753579
30,30Q111,P.S. 111 Jacob Blackwell,718-786-2073,"37-15 13 Street, Queens, NY 11101",11101.0,QUEENS,https://www.myschools.nyc/en/schools/middle-school/12600,40.758831,-73.93938
29,29Q268,P.S./I.S. 268,718-206-3240,"92-07 175 Street, Queens, NY 11433",11433.0,QUEENS,https://www.myschools.nyc/en/schools/middle-school/12509,40.707537,-73.785626
29,29Q270,The Gordon Parks School,718-341-8280,"233-15 Merrick Boulevard, Queens, NY 11422",11422.0,QUEENS,https://www.myschools.nyc/en/schools/middle-school/12513,40.674831,-73.736713
29,29Q283,Preparatory Academy for Writers: A College Board School,718-949-8405,"143-10 Springfield Boulevard, Queens, NY 11413",11413.0,QUEENS,https://www.myschools.nyc/en/schools/middle-school/12516,40.668235,-73.756839
29,29Q289,Queens United Middle School,718-723-3501,"229-02 137 Avenue, Queens, NY 11413",11413.0,QUEENS,https://www.myschools.nyc/en/schools/middle-school/12517,40.673069,-73.743173
29,29Q295,P.S./I.S. 295,718-464-1433,"222-14 Jamaica Avenue, Queens, NY 11428",11428.0,QUEENS,https://www.myschools.nyc/en/schools/middle-school/12518,40.720619,-73.731997
29,29Q327,Eagle Academy for Young Men III,718-480-2600,"171-10 Linden Boulevard, Queens, NY 11434",11434.0,QUEENS,https://www.myschools.nyc/en/schools/middle-school/12524,40.691712,-73.778923
29,29Q355,Collaborative Arts Middle School,718-977-6181,"145-00 Springfield Boulevard, Queens, NY 11413",11413.0,QUEENS,https://www.myschools.nyc/en/schools/middle-school/12525,40.664608,-73.758784
29,29Q356,Community Voices Middle School,718-977-6180,"145-00 Springfield Boulevard, Queens, NY 11413",11413.0,QUEENS,https://www.myschools.nyc/en/schools/middle-school/12526,40.664608,-73.758784
30,30Q010,I.S. 010 Horace Greeley,718-278-7054,"45-11 31St Ave, Queens, NY 11103",11103.0,QUEENS,https://www.myschools.nyc/en/schools/middle-school/12578,40.759363,-73.912902
30,30Q078,P.S./I.S. 78Q,718-392-5402,"48-09 Center Boulevard, Queens, NY 11109",11109.0,QUEENS,https://www.myschools.nyc/en/schools/middle-school/12592,40.744753,-73.957971
30,30Q122,P.S. 122 Mamie Fay,,"21-21 Ditmars Boulevard, Queens, NY 11105",11105.0,QUEENS,https://www.myschools.nyc/en/schools/middle-school/12605,40.780347,-73.916655
30,30Q126,Albert Shanker School for Visual and Performing Arts,,"31-51 21 Street, Queens, NY 11106",11106.0,QUEENS,https://www.myschools.nyc/en/schools/middle-school/12609,40.766264,-73.930709
30,30Q127,P.S. 127 Aerospace Science Magnet School,718-446-4700,"98-01 25 Avenue, Queens, NY 11369",11369.0,QUEENS,https://www.myschools.nyc/en/schools/middle-school/12610,40.764646,-73.871641
30,30Q141,I.S. 141 The Steinway,718-278-6403,"37-11 21 Avenue, Queens, NY 11105",11105.0,QUEENS,https://www.myschools.nyc/en/schools/middle-school/12613,40.775589,-73.90509
30,30Q145,I.S. 145 Joseph Pulitzer,718-457-1242,"33-34 80 Street, Queens, NY 11372",11372.0,QUEENS,https://www.myschools.nyc/en/schools/middle-school/12614,40.754661,-73.887112
30,30Q204,I.S. 204 Oliver W. Holmes,718-937-1463,"36-41 28 Street, Queens, NY 11106",11106.0,QUEENS,https://www.myschools.nyc/en/schools/middle-school/12631,40.757065,-73.932664
30,30Q227,I.S. 227 Louis Armstrong,718-335-7500,"32-02 Junction Boulevard, Queens, NY 11369",11369.0,QUEENS,https://www.myschools.nyc/en/schools/middle-school/12636,40.758408,-73.874472
30,30Q230,I.S. 230,718-335-7648,"73-10 34 Avenue, Jackson Heights, NY 11372",11372.0,QUEENS,https://www.myschools.nyc/en/schools/middle-school/12639,40.752866,-73.893193
30,30Q235,Academy for New Americans,718-956-4140,"30-14 30 Street, Queens, NY 11102",11102.0,QUEENS,https://www.myschools.nyc/en/schools/middle-school/12642,40.766794,-73.9226
30,30Q286,"Young Women's Leadership School, Astoria",718-267-2839,"23-15 Newtown Avenue, Queens, NY 11102",11102.0,QUEENS,https://www.myschools.nyc/en/schools/middle-school/12645,40.771215,-73.924591
30,30Q291,Hunters Point Community Middle School,718-609-3300,"1-50 51St Avenue, Queens, NY 11101",11101.0,QUEENS,https://www.myschools.nyc/en/schools/middle-school/12647,40.742956,-73.959196
30,30Q300,The 30th Avenue School,718-726-0501,"28-37 29 Street, Queens, NY 11102",11102.0,QUEENS,https://www.myschools.nyc/en/schools/middle-school/12648,40.768985,-73.922428
30,30Q580,Baccalaureate School for Global Education,718-361-5275,"34-12 36 Avenue, Queens, NY 11106",11106.0,QUEENS,https://www.myschools.nyc/en/schools/middle-school/12662,40.755366,-73.927169
31,31R002,I.S. R002 George L. Egbert,718-987-5336,"333 Midland Avenue, Staten Island, NY 10306",10306.0,STATEN IS,https://www.myschools.nyc/en/schools/middle-school/12727,40.576725,-74.100726
31,31R063,Marsh Avenue School for Expeditionary Learning,718-370-6850,"100 Essex Drive, Staten Island, NY 10314",10314.0,STATEN IS,https://www.myschools.nyc/en/schools/middle-school/12840,40.581315,-74.158589
31,31R007,I.S. 007 Elias Bernstein,718-697-8488,"1270 Huguenot Avenue, Staten Island, NY 10312",10312.0,STATEN IS,https://www.myschools.nyc/en/schools/middle-school/12737,40.523757,-74.185941
31,31R024,I.S. 024 Myra S. Barnes,718-982-4700,"750 Durant Avenue, Staten Island, NY 10308",10308.0,STATEN IS,https://www.myschools.nyc/en/schools/middle-school/12766,40.546081,-74.14584
31,31R027,I.S. 027 Anning S. Prall,718-981-8800,"11 Clove Lake Place, Staten Island, NY 10310",10310.0,STATEN IS,https://www.myschools.nyc/en/schools/middle-school/12769,40.628128,-74.117062
31,31R028,The Eagle Academy for Young Men of Staten Island,718-727-6201,"101 Warren Street, Staten Island, NY 10304",10304.0,STATEN IS,https://www.myschools.nyc/en/schools/middle-school/12771,40.620347,-74.081643
31,31R072,I.S. 072 Rocco Laurie,718-698-5757,"33 Ferndale Avenue, Staten Island, NY 10314",10314.0,STATEN IS,https://www.myschools.nyc/en/schools/middle-school/12849,40.593005,-74.158988
31,31R034,I.S. 034 Tottenville,718-477-4500,"528 Academy Avenue, Staten Island, NY 10307",10307.0,STATEN IS,https://www.myschools.nyc/en/schools/middle-school/12782,40.508284,-74.243428
31,31R048,P.S. 048 William G. Wilcox,718-447-8323,"1050 Targee Street, Staten Island, NY 10304",10304.0,STATEN IS,https://www.myschools.nyc/en/schools/middle-school/12806,40.603484,-74.091237
31,31R049,I.S. 49 Berta A. Dreyfus,718-727-6040,"101 Warren Street, Staten Island, NY 10304",10304.0,STATEN IS,https://www.myschools.nyc/en/schools/middle-school/12809,40.620347,-74.081643
31,31R051,I.S. 051 Edwin Markham,718-981-0502,"81 Willowbrook Road, Staten Island, NY 10302",10302.0,STATEN IS,https://www.myschools.nyc/en/schools/middle-school/12813,40.622997,-74.144257
31,31R061,I.S. 061 William A Morris,718-727-8481,"445 Castleton Avenue, Staten Island, NY 10301",10301.0,STATEN IS,https://www.myschools.nyc/en/schools/middle-school/12837,40.634009,-74.097826
31,31R075,I.S. 075 Frank D. Paulo,718-701-6343,"455 Huguenot Avenue, Staten Island, NY 10312",10312.0,STATEN IS,https://www.myschools.nyc/en/schools/middle-school/12852,40.54438,-74.197897
31,31R080,The Michael J. Petrides School,718-815-0186,"715 Ocean Terrace, Staten Island, NY 10301",10301.0,STATEN IS,https://www.myschools.nyc/en/schools/middle-school/12856,40.608512,-74.102067
31,31R861,Staten Island School of Civic Leadership,718-697-5250,"280 Regis Drive, Staten Island, NY 10314",10314.0,STATEN IS,https://www.myschools.nyc/en/schools/middle-school/12866,40.620676,-74.164277
32,32K045,P.S./I.S. 045 Horace E. Greene,718-642-5360,"84 Schaefer Street, Brooklyn, NY 11207",11207.0,BROOKLYN,https://www.myschools.nyc/en/schools/middle-school/12983,40.686746,-73.910693
32,32K162,J.H.S. 162 The Willoughby,718-821-4860,"1390 Willoughby Avenue, Brooklyn, NY 11237",11237.0,BROOKLYN,https://www.myschools.nyc/en/schools/middle-school/13005,40.707229,-73.919805
32,32K291,J.H.S. 291 Roland Hayes,718-574-0361,"231 Palmetto Street, Brooklyn, NY 11221",11221.0,BROOKLYN,https://www.myschools.nyc/en/schools/middle-school/13009,40.695362,-73.915142
32,32K347,I.S. 347 School of Humanities,718-821-4248,"35 Starr Street, Brooklyn, NY 11221",11221.0,BROOKLYN,https://www.myschools.nyc/en/schools/middle-school/13012,40.70069,-73.927481
32,32K349,"I.S. 349 Math, Science & Tech.",718-418-6389,"35 Starr Street, Brooklyn, NY 11221",11221.0,BROOKLYN,https://www.myschools.nyc/en/schools/middle-school/13013,40.70069,-73.927481
32,32K383,J.H.S. 383 Philippa Schuyler,718-574-0390,"1300 Greene Avenue, Brooklyn, NY 11237",11237.0,BROOKLYN,https://www.myschools.nyc/en/schools/middle-school/13018,40.697781,-73.919777
32,32K384,P.S. /I.S. 384 Frances E. Carter,718-642-4890,"242 Cooper Street, Brooklyn, NY 11207",11207.0,BROOKLYN,https://www.myschools.nyc/en/schools/middle-school/13019,40.690353,-73.904803
32,32K562,Evergreen Middle School for Urban Exploration,718-455-0180,"125 Covert Street, Brooklyn, NY 11207",11207.0,BROOKLYN,https://www.myschools.nyc/en/schools/middle-school/13030,40.688387,-73.910276
